,_id,shopname,description,timetable,web,photo,location,address,district,neighbourhood,zip_code,type,tags,phone,product_list,nearest_stations
0,628290eba85a7a5a0184d14d,Vida Meva,"Aquest comerç porta ja més de 10 anys al barri fomentant el consum responsable. Seguint la filosofia de la botiga, treballen amb fruita i verdura directament de pagesos d'horta ecològica, de temporada i de proximitat escurçant els circuits de comercialització en la mesura del possible. Tenen un ampli ventall de productes a granel i alguns productes ecològics empaquetats. A més, també s'hi poden trobar ampolles d’aigua retornables de vidre.<br />
Incentiven la utilització de materials reutilitzables però també ofereixen bosses de paper reciclat. L'oferta és aproximadament un 90% de productes ecològics i la resta són petits artesans de proximitat. Tenen una secció que es diu “El racó dels convidats” segons temporada aposten per petits productors amb propostes sostenibles, per exemple en aquesta secció hi podem trobar la marca “imperfect”.<br />
Organitzen sortides per conèixer els productors que els proveeixen els productes.<br />
 ",,https://vidameva.com/,https://i.pinimg.com/564x/52/76/a7/5276a7255d2cc0514b0af1dd8b55efc7.jpg,"[41.4004585, 2.2033979]","Carrer Ramon Turró, 201",Sant Martí,El Poblenou,08001,others,"['Supermarket', 'Bar', 'Restaurant']",,,"{'10534': 391.85, '6677': 3209.05}"
1,628290eba85a7a5a0184d14e,Bodega El Mallorquí,"Establiment on es poden trobar vi, licors i altres begudes a granel i embotellades, algunes ecològiques. Cervesa artesana",,,https://i.pinimg.com/564x/dd/a3/6e/dda36e4305073dba20a161b41987a5b3.jpg,"[41.4046178, 2.1560169]","Carrer de Verdi, 61",Gràcia,Vila de Gràcia,08012,bar,"['Fruits & vegetables', 'Allows pets', 'Beverages']",,,"{'10533': 2478.54, '6669': 2151.4, '11758': 689.14, '10532': 3905.05}"
2,628290eba85a7a5a0184d14f,The Tea World,"The Tea World neix el setembre de 2011, com a negoci familiar enfocat al món del te i el cafè.<br />
Mitjançant la nostra botiga i experiència, volem crear un punt de referència per a amants de te a granel de la millor qualitat i cafè de la seva millor producció.<br />
 <br />
Disposem de més de 145 referències de Te, Infusions i Rooibos a granel, procedents directament de les millors zones de producció a nivell mundial. Els nostres Cafès procedeixen de les més importants zones de producció, Amèrica del Sud i Àfrica.<br />
 <br />
A The Tea World treballem per aconseguir la millor qualitat i varietat dels nostres productes.<br />
 <br />
A més, disposem d'una àmplia gamma d'accessoris i complements per a l'ús i gaudi del Te i el Cafè.<br />
 <br />
<br />
Et donem la benvinguda a la nostra botiga virtual!",,https://www.theteaworld.es/,https://i.pinimg.com/564x/01/d6/73/01d6739c176f5ee7f0192c4a3914d8d3.jpg,"[41.4050828, 2.1734883]","Carrer Marina, 271",Eixample,Sagrada Família,08001,alimentation,"['Second hand', 'Pharmacy', 'Fruits & vegetables']",,,"{'10533': 3157.77, '10534': 2591.8, '6669': 2740.52, '11758': 1818.89}"
3,628290eba85a7a5a0184d150,La Botiga Natural,"Alimentació i herbodietètica ECO. Fruita, verdura i nous a granel. El producte és de proximitat en la mesura del possible, tenen algun producte de comerç just i ofereixen bosses compostables.",,https://labotiganatural.com/index.php?,https://i.pinimg.com/564x/01/d6/73/01d6739c176f5ee7f0192c4a3914d8d3.jpg,"[41.4057595, 2.1736695]","Carrer Rosselló, 441",Eixample,Sagrada Família,08001,supermarket,"['Recycled material', 'Restaurant', 'Vegan food']",,,"{'10533': 3112.91, '10534': 2581.7, '6669': 2810.03, '11758': 1863.06}"
4,628290eba85a7a5a0184d151,Espai Bici,Espai dedicat a la bicicleta com a mitjà de transport. Venda i taller de reparació de bicicletes.,,http://www.espaibici.com,https://i.pinimg.com/564x/a8/0a/07/a80a079da685d1f7b99c21146b6e674d.jpg,"[41.3936829, 2.1702138]","Carrer Bruc, 63",Eixample,Dreta de l'Eixample,08009,fruits & vegetables,"['Cosmetics', 'Beverages', 'Bakery']",,,"{'10534': 3078.15, '6669': 1652.42, '11758': 1512.3}"
5,628290eba85a7a5a0184d152,PanAmà - La tradició del pa,"Forn de pa artesà fet a mà, elaborat amb massa mare i fermentació lenta de 12 hores.<br />
Utilitzen 4 tipus de farina ecològica i de proximitat (sègol, civada, integral i de pedra).<br />
Fan entrega en bicicleta a residències i restaurants.",,,https://i.pinimg.com/564x/8c/d4/b7/8cd4b7791b6db9189a2f9ac9bd6e81a0.jpg,"[41.3917482, 2.17370311]","Casp, 39",Eixample,Dreta de l'Eixample,08010,fruits & vegetables,"['Recycled material', 'Bakery', 'Allows pets']",,,"{'10534': 2903.15, '6669': 1805.14, '11758': 1864.76}"
6,628290eba85a7a5a0184d153,Gram Biològic,"Botiga d'alimentació, cosmètica i complements ecològics.<br />
Vins, fruites i verdures de proximitat i ecològiques.<br />
Assessorament.",,,https://i.pinimg.com/564x/71/d1/5b/71d15bfec596e1b7866ae3bc12e381d3.jpg,"[41.3962071, 2.16770569]","Carrer de València, 305",Eixample,Dreta de l'Eixample,08009,beverages,"['Beverages', 'Green space', 'Second hand']",,,"{'10533': 3706.29, '10534': 3187.17, '6669': 1673.78, '11758': 1227.33}"
7,628290eba85a7a5a0184d154,Crearte Styling,"Perruqueria i estètica amb productes ecològics certificats, tints lliures de plom i altres tòxics. Maquillatge natural, esmalt ecològic...<br />
<br />
L’ús de productes amb compostos estrictament naturals, tècniques de treball de consum mínim i una cura detallada dels residus, va valdre a Crearte el premi “Barcelona la millor Botiga del Món” a la millor iniciativa empresarial que atorga l’Ajuntament de Barcelona. Tots els productes són alemanys «Bioestetique».",,http://www.creartestyling.com/,https://i.pinimg.com/564x/dd/6f/8e/dd6f8eeffb20cefbccad7d60f831771b.jpg,"[41.3980019, 2.1671019]","Carrer de Girona, 134",Eixample,Dreta de l'Eixample,08037,bakery,"['Second hand', 'Vegan food', 'Green space']",,,"{'10533': 3505.35, '10534': 3188.87, '6669': 1791.51, '11758': 1147.08}"
8,628290eba85a7a5a0184d155,Columpiu,Botiga de mobles de segona mà amb encant.,,https://columpiu.wordpress.com/,https://i.pinimg.com/564x/dd/a3/6e/dda36e4305073dba20a161b41987a5b3.jpg,"[41.39965168, 2.16658989]","Carrer de Bailèn, 147",Eixample,Dreta de l'Eixample,08037,restaurant,"['Cosmetics', 'Second hand', 'Bakery']",,,"{'10533': 3322.84, '10534': 3198.57, '6669': 1914.92, '11758': 1106.02}"
9,628290eba85a7a5a0184d156,Baobab Company,"Baobab Company és una marca de ""Prêt-à-porter"" i de samarretes nascuda a l'Oceà Índic el 1995 amb la promoció dels valors humans, de comerç just i de roba ecològica (GOTS).<br />
 ",,https://www.baobabcompany.net,https://i.pinimg.com/564x/dd/a3/6e/dda36e4305073dba20a161b41987a5b3.jpg,"[41.38685432, 2.18095581]","Allada Vermell, 14",Ciutat Vella,"Sant Pere, Santa Caterina i la Ribera",08003,supermarket,"['Accessible', 'For children', 'Green space']",,,"{'10534': 2729.2, '6669': 2269.93, '11758': 2652.74}"
10,628290eba85a7a5a0184d157,Casa Gispert,"Establiment on es venen a granel fruits secs, tés, cafès, herbes, espècies i oli.<br />
<br />
En 1851, en ple centre de Barcelona, neix Casa Gispert.<br />
<br />
Casa Gispert és una de les empreses d’alimentació més antigues de Barcelona. La botiga es troba al centre de la ciutat comtal, al costat de la basílica de Santa Maria del Mar, molt a prop del Museu Picasso. Casa Gispert ven productes colonials des de 1851: fruits secs, fruita dessecada, cafè, te, cacau, espècies com la vainilla, la canyella, el safrà … i l’interior de la botiga ha estat conservat en el seu estat original, com un museu però encara funcionant. Avui en dia, Casa Gispert ofereix també una gran diversitat d’altres productes, ecològics, olis d’oliva verge extres, vinagres, xocolates, torrons, mels, melmelades, vins dolços, cistells de regal, etc. sempre a la recerca de productes locals i de gran qualitat.",,http://www.casagispert.com,https://i.pinimg.com/564x/01/d6/73/01d6739c176f5ee7f0192c4a3914d8d3.jpg,"[41.3840933, 2.18188921]","Carrer Sombrerers, 23",Ciutat Vella,"Sant Pere, Santa Caterina i la Ribera",08001,cosmetics,"['Allows pets', 'Cosmetics', 'Supermarket']",,,"{'10534': 2899.2, '6669': 2345.7, '11758': 2882.27}"
11,628290eba85a7a5a0184d158,Casa Perris,"Graneria de qualitat fundada al 1940. Venda de productes a granel: llegums, llavors, arrossos, fruits secs, entre d'altres. Tenen oferta de productes ecològics i fan servir bosses de plàstic biodegradable, paperines o bosses de roba.",,http://www.casaperris.com/Torras/index.jsp,https://i.pinimg.com/564x/71/d1/5b/71d15bfec596e1b7866ae3bc12e381d3.jpg,"[41.38592863, 2.18281189]","Plaça Comercial, 2",Ciutat Vella,"Sant Pere, Santa Caterina i la Ribera",08003,non-alimentation,"['Local products', 'Herbalist', 'Green space']",,,"{'10534': 2695.21, '6669': 2419.43, '11758': 2838.31}"
12,628290eba85a7a5a0184d159,Henna Morena,Cosmètica natural i mediterrània i perruqueria ecològica.,,https://www.hennamorena.com,https://i.pinimg.com/564x/ce/84/41/ce844160a3d2dd51382d52e955e05a50.jpg,"[41.38416575, 2.18312303]","Esparteria, 12",Ciutat Vella,"Sant Pere, Santa Caterina i la Ribera",08001,bar,"['Restaurant', 'Supermarket', 'For children']",,,"{'10534': 2827.0, '6669': 2448.02, '11758': 2963.33}"
13,628290eba85a7a5a0184d15a,Amantis Gràcia,"Botiga eròtica amb productes ecològics, vegans, de proximitat i de comerç just.<br />
Especialitzada en llibres, eines per a la millora de la sexualitat, llenceria, vibradors, joguines i jocs de taula eròtics, complements per al BDSM, condons, cosmètica eròtica,... A més promouen el reciclatge de joguines i el transport sostenible, fent un 5% de desompte als clients que vagin en bicicleta. <br />
<br />
 ",,http://ccpatchwork.es,https://i.pinimg.com/564x/71/d1/5b/71d15bfec596e1b7866ae3bc12e381d3.jpg,"[41.40370768, 2.15530316]","Torrent de l'Olla, 145",Gràcia,Vila de Gràcia,08012,pharmacy,"['Recycled material', 'Supermarket', 'Vegan food']",,,"{'10533': 2561.31, '6669': 2046.13, '11758': 574.76, '10532': 3804.19}"
14,628290eba85a7a5a0184d15b,Olokuti,"Olokuti promou un consum responsable basat en el comerç just, productes ecològics, biològics, artesanals i culturals.<br />
La nostra filosofia és que es pot aconseguir una equitat i un intercanvi més just a través de les nostres compres.<br />
També es realitzen activitats al jardí a la primavera-tardor (cinema, xerrades, exposicions, ...).<br />
 ",,http://www.olokuti.com,https://i.pinimg.com/564x/52/76/a7/5276a7255d2cc0514b0af1dd8b55efc7.jpg,"[41.40345016, 2.15461651]","Carrer Astúries, 36",Gràcia,Vila de Gràcia,08012,cosmetics,"['Vegan food', 'Bar', 'Beverages']",,,"{'10533': 2576.25, '6669': 2014.85, '11758': 533.39, '10532': 3740.19}"
15,628290eba85a7a5a0184d15c,Surinyach Pasta i Gra,"Alimentació a granel en pasta, arròs, espècies, tes, fruits secs, i més...A Surinyach Pasta i Gra apostem per recuperar el comerç de proximitat què tan caracteritzava la nostra ciutat. Hem treballat per dissenyar un espai on els clients gaudeixin i se sentin còmodes.<br />
 <br />
Mentre preparàvem el projecte, hem seleccionat acuradament els nostres proveïdors. Per això  oferim els nostres productes amb total confiança als nostres clients.<br />
Fruits secs torrats amb forn de llenya; pasta alimentària fabricada amb mètodes tradicionals seguits per vuit generacions de mestres artesans; espècies seleccionades i portades a casa nostra des de els punts més remots del món; infusions i tes i les seves barreges exclusives, llegums, farines i molt més... <br />
Al nostre comerç hi trobareu productes de cultiu ecològic i de proximitat. L'agricultura i el comerç responsable tenen per nosaltres una importància màxima. <br />
 ",,http://www.pastaigra.com,https://i.pinimg.com/564x/b7/ed/e3/b7ede31ce52cca67b321f8e7b615403e.jpg,"[41.4096475, 2.1625366]","Carrer Providència, 152",Gràcia,Camp d'en Grassot i Gràcia Nova,08024,bar,"['Pharmacy', 'Restaurant', 'Supermarket']",,,"{'10533': 2193.08, '10534': 3559.87, '6669': 2798.91, '11758': 1432.75}"
16,628290eba85a7a5a0184d15d,New Fitness,"Dietètica i nutrició esportiva.<br />
Productes ecològics.",,https://www.newfitnessairesur.com/horarios,https://i.pinimg.com/564x/71/d1/5b/71d15bfec596e1b7866ae3bc12e381d3.jpg,"[41.4149504, 2.1944134]","Bac de Roda, 194-196",Sant Martí,Sant Martí de Provençals,08001,herbalist,"['Vegan food', 'Second hand', 'For children']",,,"{'10534': 1492.0, '6677': 2606.33, '11758': 3867.33}"
17,628290eba85a7a5a0184d15e,Superverd Huelva,"Fruiteria amb venda de productes d'alimentació ecològics i a granel.<br />
<br />
Superverd és una empresa d’origen català, dedicada a la venda de fruita i verdura al detall. Creada a mitjans dels anys 80, Superverd compta actualment amb més de 85 establiments repartits per tot el territori català.<br />
<br />
El nostre objectiu és oferir als nostres clients les millors fruites i verdures en cada moment, garantint sempre la seva qualitat. A les nostres botigues el client gaudirà del millor servei i de la professionalitat que ens caracteritza.",,http://www.superverd.es/,https://i.pinimg.com/564x/dd/a3/6e/dda36e4305073dba20a161b41987a5b3.jpg,"[41.4163966, 2.1950589]","Carrer Huelva, 48",Sant Martí,Sant Martí de Provençals,08020,alimentation,"['Allows pets', 'Local products', 'Pharmacy']",,,"{'10534': 1599.98, '6677': 2488.02, '11758': 3991.58}"
18,628290eba85a7a5a0184d15f,Frescuore Maresme,Fruiteria amb selecció de productes d'alimentació ecològics.,,https://www.calfruitos.com/es/tiendas,https://i.pinimg.com/564x/fb/ef/60/fbef60ff298f65e2cb8757827aa1dfb7.jpg,"[41.4208678, 2.2045938]","Maresme, 238",Sant Martí,La Verneda i la Pau,08020,bakery,"['Accessible', 'Cosmetics', 'Bar']",,,"{'10534': 1888.97, '6677': 1563.7}"
19,628290eba85a7a5a0184d160,Frescuore Puigcerdà,"Fruiteria amb selecció de productes ecològics: fruita, verdura i altres productes d'alimentació.",,https://www.calfruitos.com/botigues,https://i.pinimg.com/564x/8c/d4/b7/8cd4b7791b6db9189a2f9ac9bd6e81a0.jpg,"[41.4188704, 2.2046293]","Puigcerdà, 211",Sant Martí,La Verneda i la Pau,08001,supermarket,"['Pharmacy', 'Bakery', 'Vegan food']",,,"{'10534': 1666.88, '6677': 1649.42}"
20,628290eba85a7a5a0184d161,Frescuore Agricultura,Fruiteria amb selecció de productes d'alimentació ecològics i a granel.,,http://www.frescuore.com,https://i.pinimg.com/564x/07/d2/8f/07d28f2f30af7ee6ec671163498d5600.jpg,"[41.4165046, 2.2032293]","Agricultura, 211",Sant Martí,Sant Martí de Provençals,08001,cosmetics,"['Beverages', 'Accessible', 'Supermarket']",,,"{'10534': 1407.93, '6677': 1881.83}"
21,628290eba85a7a5a0184d162,Natura Espai Ecològic,"La botiga BIO des de l'any 1973 a Gràcia.<br />
Herbolari, dietètica, alimentació biològica, productes a granel biològics i productes de comerç just.",,,https://i.pinimg.com/564x/fb/ef/60/fbef60ff298f65e2cb8757827aa1dfb7.jpg,"[41.4011059, 2.1587808]","Torrent de l'Olla, 92",Gràcia,Vila de Gràcia,08012,bar,"['Bakery', 'Local products', 'Cosmetics']",,,"{'10533': 2919.1, '10534': 3827.57, '6669': 1801.23, '11758': 521.12, '10532': 3942.05}"
22,628290eba85a7a5a0184d163,Dishome Sant Andreu,"Productes amb certificats ecolabel, ecologylabel i registre alimentari.<br />
Reutilització d'envasos per reomplir amb un sistema de bossetes fetes amb film de blat de moro 100% hidrosoluble.<br />
Neteja professional amb producte actius del 28 al 40%.",,www.disarp.com   www.dishome.es    www.dreamgold.es,https://i.pinimg.com/564x/f7/cc/f3/f7ccf366101db1b54067ecca8418bfe6.jpg,"[41.4318832, 2.1853748]","Carrer Sócrates, 73",Sant Andreu,Sant Andreu,08030,cosmetics,"['Beverages', 'Plastic free', 'Accessible']",,,"{'10533': 3182.75, '10534': 3499.31, '6677': 3151.81}"
23,628290eba85a7a5a0184d164,Farmàcia Franquesa,"Farmàcia amb productes elaborats a la pròpia farmàcia. Cosmètica natural de producció pròpia basada en olis vegetals; tenen compreses de cotó orgànic.<br />
Treballen amb el laboratori ""prodeco"", que utilitza productes ecològics.",,http://www.1842.cat/,https://i.pinimg.com/564x/b7/ed/e3/b7ede31ce52cca67b321f8e7b615403e.jpg,"[41.4351432, 2.1898967]","Carrer Gran de Sant Andreu, 260",Sant Andreu,Sant Andreu,08030,bakery,"['Supermarket', 'Vegan food', 'Local products']",,,"{'10533': 3636.01, '10534': 3684.03, '6677': 2897.29}"
24,628290eba85a7a5a0184d165,La Botiga Ecològica,"<br />
Alimentació biològica i natural<br />
Fruita i verdura - 3 cops per setmana :: Carn i pollastre - cada dimecres.<br />
Vins, caves i cerveses... Tot amb aval biològic de garantia.<br />
Herboristeria i Dietètica<br />
Més de 225 plantes al seu abast. Àmplia selecció de tes i espècies a granel.<br />
Alimentació Macrobiòtica i Natural<br />
Cosmètica i Higiene<br />
Nutrició esportiva<br />
Productes del Comerç Just<br />
La botiga ecològica consta de consulta i cabina de massatges:<br />
Consulta:<br />
Naturopatia · Homeopatia · Acupuntura · Dietista (obesitat, diabetes, colesterol, etc.)<br />
Flors de Bach (pors, inseguretats, insomni, etc.) · Reiki · Psicoteràpia hipnòtica<br />
Tractaments:<br />
Massatges terapèutics · Reflexoteràpia · Tractaments del dolor<br />
A la botiga ecològica, en el pís superior, hi trobarà una rèplica d'antic herbolari,<br />
on es troben exposades totes les plantes, tes i espècies que trobarà a la botiga,<br />
així com també, la possibilitat de degustar aquella infusió o te que vulgui.<br />
 ",,http://www.sant-andreu.com/com-2/botigaecologica/index.html,https://i.pinimg.com/564x/07/d2/8f/07d28f2f30af7ee6ec671163498d5600.jpg,"[41.43478265, 2.18917917]","Carrer Gran de Sant Andreu, 242",Sant Andreu,Sant Andreu,08030,fruits & vegetables,"['For children', 'Recycled material', 'Fruits & vegetables']",,,"{'10533': 3567.5, '10534': 3666.67, '6677': 2938.92}"
25,628290eba85a7a5a0184d166,Equivalenza Sant Andreu,"Venda de perfums a granel, si es reutilitza l'envàs es descompta 1€. Cosmètica sense parabens i vegana (no testada en animals). La fabricació dels seus productes es realitza a Barcelona.<br />
No donen bossa, s'embolica en paper, si demanen la bossa donen una de paper. ",,http://www.equivalenza.com,https://i.pinimg.com/564x/01/d6/73/01d6739c176f5ee7f0192c4a3914d8d3.jpg,"[41.43435747, 2.18930364]","Gran de Sant Andreu, 225bis",Sant Andreu,Sant Andreu,08001,bakery,"['For children', 'Bar', 'Beverages']",,,"{'10533': 3565.0, '10534': 3618.75, '6677': 2913.09}"
26,628290eba85a7a5a0184d167,Centre Dietètic Sant Andreu,Dietètica amb productes ecològics i suplements dietètics.,,http://centredieteticsantandreu.com/,https://i.pinimg.com/564x/dd/a3/6e/dda36e4305073dba20a161b41987a5b3.jpg,"[41.4314898, 2.1892857]","Gran de Sant Andreu, 133",Sant Andreu,Sant Andreu,08392,cosmetics,"['Bakery', 'Herbalist', 'Bar']",,,"{'10533': 3494.88, '10534': 3322.59, '6677': 2824.31}"
27,628290eba85a7a5a0184d168,Cal Garrí,"Xarcuteria de productes gourmet. Els seus proveïdors de productes frescos són elaboradors artesanals. Els embotits i formatges són de petits elaboradors, tot de proximitat i de Catalunya.<br />
També tenen formatges ecològics i ous de gallines campestres. <br />
Disposen d'un cartell informatiu que recorda que els clients poden portar las eva carmanyola.",,https://elrosal.cat/es/comestibles/elrosal/on-comprar-les-nostres-galetes/35093/cal-garri/656.html,https://i.pinimg.com/564x/ce/84/41/ce844160a3d2dd51382d52e955e05a50.jpg,"[41.3961732, 2.180361]","Carrer de Sicília, 113",Eixample,Fort Pienc,08013,bakery,"['For children', 'Recycled material', 'Herbalist']",,,"{'10534': 2189.92, '6669': 2520.4, '11758': 2268.17}"
28,628290eba85a7a5a0184d169,EMI & CARLES,"Botiga d'aliments naturals de denominació d'origen especialitzada en carns i embotits directes de granja. Carn ecològica, embotits de qualitat, bona part del producte de proximitat.<br />
Pel que fa a l'envàs, admeten compra amb carmanyola del client, i tenen safates de canya de sucre.",,,https://i.pinimg.com/564x/ce/84/41/ce844160a3d2dd51382d52e955e05a50.jpg,"[41.396914, 2.1777102]","Gran Via, 687",Eixample,Fort Pienc,08001,pharmacy,"['Plastic free', 'Pharmacy', 'Allows pets']",,,"{'10534': 2366.72, '6669': 2372.21, '11758': 2039.15}"
29,628290eba85a7a5a0184d16a,ÀGORA llibreria - papereria,"Papereria on adquirir paper i llibretes de paper reciclat, joguines sense piles, bolígrafs i marcadors recarregables i recanvis. Realitzen fotocòpies en paper reciclat certificat i, a més, recull cartutxos de tòner per reciclar.",,https://www.compraeixample.cat/es/socio/papereria-agora,https://i.pinimg.com/564x/8c/d4/b7/8cd4b7791b6db9189a2f9ac9bd6e81a0.jpg,"[41.4021437, 2.1837761]","Carrer de los Castillejos, 181",Eixample,Fort Pienc,08001,non-alimentation,"['Bar', 'Allows pets', 'Local products']",,,"{'10533': 3998.58, '10534': 1741.1, '6669': 3120.03, '11758': 2562.9}"
30,628290eba85a7a5a0184d16b,RE-CYCLING,"Botiga de bicicletes de 2a mà.<br />
<br />
""Tenim el somni d'aconseguir que cap bicicleta mori, reciclant qualsevol bicicleta utilitzada. El nostre projecte és poder oferir-te un lloc on puguis vendre la teva bicicleta usada o bé poder comprar una bicicleta de segona mà perfectament preparada"".",,https://www.somosrecycling.es,https://i.pinimg.com/564x/01/d6/73/01d6739c176f5ee7f0192c4a3914d8d3.jpg,"[41.39667607, 2.18405461]","Marina, 127",Eixample,Fort Pienc,08001,bar,"['Beverages', 'Herbalist', 'Recycled material']",,,"{'10534': 1885.79, '6669': 2819.47, '11758': 2568.49}"
31,628290eba85a7a5a0184d16c,Salut Natural Herbodietètica,"Salut Natural és un herbolari des de 1983. Són especialistes en Dietoteràpia (a partir del aliments del dia a dia es poden fer grans millores!).<br />
Venen herbes a granel i tenen alimentació i productes de neteja amb certificació ecològica.",,https://www.herbolarisalutnatural.com/,https://i.pinimg.com/564x/01/d6/73/01d6739c176f5ee7f0192c4a3914d8d3.jpg,"[41.3972551, 2.181017]","Casp, 139",Eixample,Fort Pienc,08013,alimentation,"['Second hand', 'Local products', 'Vegan food']",,,"{'10534': 2094.38, '6669': 2627.15, '11758': 2310.73}"
32,628290eba85a7a5a0184d16d,Gran Vida Herbolari,"Botiga especialitzada en cosmètica i higiene íntima femenina natural i ecològica. Compreses de roba, copes menstruals, esponges marines.<br />
Especialització en embarassades i nadons.<br />
Disposen de gran varietat de plantes medicinals a granel. També ofereixen una àmplia gamma d'espècies, selecció de tes, complements alimentaris, productes apícoles (mel, pol·len i pròpolis), aliments naturals procedents d'agricultura ecològica, aliments dietètics i de règim especial (sense gluten, sense sucre, vegans, etc.).<br />
<br />
 ",,https://herbolarigranvida.com/,https://i.pinimg.com/564x/01/d6/73/01d6739c176f5ee7f0192c4a3914d8d3.jpg,"[41.39754479, 2.17947043]","Gran Via, 748",Eixample,Fort Pienc,08013,cosmetics,"['Allows pets', 'Accessible', 'Local products']",,,"{'10534': 2205.09, '6669': 2533.69, '11758': 2179.87}"
33,628290eba85a7a5a0184d16e,Cal Fruitós,"A la botiga es poden trobar fruita i verdura ecològica i de proximitat, a més d'una llista llarga de productes per contribuir a la dieta mediterrània, com l’oli d’olives arbequines de Siurana, productes del dia a dia com l’aigua de la Garrotxa o el vi de Falset, productes sense gluten, capritxos diaris sense sucre o endolcits amb sucre vegetal com l’ Stevia, i altres productes procedents de famílies que produeixen productes artesans de màxima qualitat, com el làctics artesans de Sallent o l’arròs de Pals.",,http://www.calfruitos.com,https://i.pinimg.com/564x/b7/ed/e3/b7ede31ce52cca67b321f8e7b615403e.jpg,"[41.39511253, 2.1796147]","Nàpols, 113",Eixample,Fort Pienc,08013,non-alimentation,"['Allows pets', 'Vegan food', 'Bakery']",,,"{'10534': 2294.92, '6669': 2410.49, '11758': 2224.8}"
34,628290eba85a7a5a0184d16f,Ferreteria Racavi,"Botiga on es poden adquirir productes de ferreteria a granel, bombetes de baix consum i LEDS, estalviadors d'aigua, carregadors i piles recarregables, paelles amb recobriment ecològic, etc.",,https://www.qdq.com/ferreteria-racavi-760975,https://i.pinimg.com/564x/71/d1/5b/71d15bfec596e1b7866ae3bc12e381d3.jpg,"[41.39564372, 2.18130986]","Carrer d'Ausiàs Marc, 113",Eixample,Fort Pienc,08013,others,"['Restaurant', 'Fruits & vegetables', 'Second hand']",,,"{'10534': 2141.83, '6669': 2563.36, '11758': 2354.62}"
35,628290eba85a7a5a0184d170,Fruiteria La Gripaueta,"Fruiteria i verduleria. Inclou oferta ecològica de producte de proximitat i de fora: fruita, verdura, ous, llegums.",,,https://i.pinimg.com/564x/10/9c/0d/109c0d7130543076a878679abc0abe9d.jpg,"[41.38805689, 2.13602541]",Constança 8-10,Les Corts,Les Corts,08001,supermarket,"['Cosmetics', 'Vegan food', 'Pharmacy']",,,"{'6681': 2625.97, '6669': 1515.12, '11758': 1873.21, '10532': 1742.7}"
36,628290eba85a7a5a0184d171,Wine palace,Bodega amb oferta de vins ecològics i biodinàmics. A més d'altres destil·lats en ampolla i a granel. ,,http://www.winepalace.es,https://i.pinimg.com/564x/dd/6f/8e/dd6f8eeffb20cefbccad7d60f831771b.jpg,"[41.3907021, 2.1431404]",Avinguda Sarrià 30,Les Corts,Les Corts,08001,non-alimentation,"['Beverages', 'Plastic free', 'Local products']",,,"{'10533': 3954.6, '6681': 3250.88, '6669': 1072.18, '11758': 1236.82, '10532': 2362.28}"
37,628290eba85a7a5a0184d172,Fent punt,"Merceria. Venda de llanes, reutilització de roba, venda de pedaços, teles i productes de merceria",,,https://i.pinimg.com/564x/71/d1/5b/71d15bfec596e1b7866ae3bc12e381d3.jpg,"[41.38283149, 2.12874595]","Gran Via de Carles III, 46- 48",Les Corts,Les Corts,08001,bar,"['Allows pets', 'Cosmetics', 'Local products']",,,"{'6681': 1788.92, '6669': 2110.58, '11758': 2712.03, '10532': 1246.8}"
38,628290eba85a7a5a0184d173,Un mar d'idees,"Papereria, copisteria, impressió digital, arts gràfiques",,http://www.unmardidees.com,https://i.pinimg.com/564x/a8/0a/07/a80a079da685d1f7b99c21146b6e674d.jpg,"[41.38263995, 2.13164846]","Joan Güell, 142",Les Corts,Les Corts,08001,alimentation,"['Vegan food', 'Fruits & vegetables', 'Supermarket']",,,"{'6681': 1938.45, '6669': 1874.13, '11758': 2548.37, '10532': 1478.17}"
39,628290eba85a7a5a0184d174,Les Corts natural,"Productes certificats d'alimentació i cosmètica eco i bio, tenen bossa de paper",,https://www.naturopatia-rosagarcia.es/les-corts-natural/,https://i.pinimg.com/564x/dd/a3/6e/dda36e4305073dba20a161b41987a5b3.jpg,"[41.383887, 2.1339791]","Vallespir, 169",Les Corts,Les Corts,08001,bar,"['Bakery', 'Allows pets', 'Local products']",,,"{'6681': 2174.86, '6669': 1663.33, '11758': 2312.9, '10532': 1621.05}"
40,628290eba85a7a5a0184d175,Bloi moda ecològica,"Moda eco amb teixit certificat, disseny i producció pròpia. Cotó orgànic, sense químics, producció ètica. Bossa de paper.",,http://www.bloi.es,https://i.pinimg.com/564x/8c/d4/b7/8cd4b7791b6db9189a2f9ac9bd6e81a0.jpg,"[41.3841066, 2.1363657]","Carrer Guitard, 71",Les Corts,Les Corts,08001,cosmetics,"['Restaurant', 'Allows pets', 'Bakery']",,,"{'6681': 2339.77, '6669': 1462.79, '11758': 2159.74, '10532': 1809.43}"
41,628290eba85a7a5a0184d176,B69 ferreteria,"Ferreteria amb oferta de productes ecològics (bombetes de baix consum, estalviadors d'aigua). Venta de productes a granel (cargols, arandeles...).",,,https://i.pinimg.com/564x/a8/0a/07/a80a079da685d1f7b99c21146b6e674d.jpg,"[41.3837736, 2.1397212]","Berlín, 69",Les Corts,Les Corts,08001,non-alimentation,"['Herbalist', 'Local products', 'Supermarket']",,,"{'6681': 2538.07, '6669': 1189.23, '11758': 2017.4, '10532': 2091.08}"
42,628290eba85a7a5a0184d177,Bodega Andrade,"Bodega. Oferta de vins a granel, sifó retornable, licors i caves. Part de l'oferta de vins de proximitat.",,http://bodegasandrade.es/,https://i.pinimg.com/564x/8c/d4/b7/8cd4b7791b6db9189a2f9ac9bd6e81a0.jpg,"[41.4167156, 2.201898]","Carrer d'Andrade, 159",Sant Martí,Sant Martí de Provençals,08001,restaurant,"['Local products', 'Herbalist', 'Bar']",,,"{'10534': 1443.94, '6677': 1964.33}"
43,628290eba85a7a5a0184d178,La dietética,"Botiga d'alimentació ecològica, herbodietética, cosmética bio",,,https://i.pinimg.com/564x/dd/a3/6e/dda36e4305073dba20a161b41987a5b3.jpg,"[41.4195537, 2.2063536]",Maresme 202-208,Sant Martí,La Verneda i la Pau,08020,others,"['Herbalist', 'Supermarket', 'Vegan food']",,,"{'10534': 1749.51, '6677': 1486.81}"
44,628290eba85a7a5a0184d179,Amapola bio cosmètics,"Botiga de productes de cosmètica ecològics, orgànics i bio amb certificació",,http://www.amapolabio.com,https://i.pinimg.com/564x/01/d6/73/01d6739c176f5ee7f0192c4a3914d8d3.jpg,"[41.3845302, 2.178965]",Bòria 20,Ciutat Vella,"Sant Pere, Santa Caterina i la Ribera",08003,others,"['Green space', 'Second hand', 'Fruits & vegetables']",,,"{'10534': 3028.94, '6669': 2099.56, '11758': 2655.37}"
45,628290eba85a7a5a0184d17a,Pirineu en boca,"Productes gastronòmics del Pirineu; carns  directament del productor al consumidor d'animals criats en entorns naturals de manera respectuosa amb el medi ambient. Tenen una selecció de productes ecològics: formatges, dolços, embotits.",,http://www.pirineuenboca.com/,https://i.pinimg.com/564x/dd/6f/8e/dd6f8eeffb20cefbccad7d60f831771b.jpg,"[41.3915292, 2.1750943]","Carrer de Girona, 17",Eixample,Dreta de l'Eixample,08001,alimentation,"['For children', 'Local products', 'Plastic free']",,,"{'10534': 2812.73, '6669': 1903.38, '11758': 1980.57}"
46,628290eba85a7a5a0184d17b,Cal Rosset,"Botiga de venda de fruita i verdura ecològica, part de la qual és de producció pròpia. Tenen camps a Sant Viçents dels Horts i a Sant Boi de Llobregat. Tots els productes són ecològics i de proximitat.",,http://www.calrosset.com,https://i.pinimg.com/564x/fb/ef/60/fbef60ff298f65e2cb8757827aa1dfb7.jpg,"[41.3971803, 2.1768458]","Carrer de Nàpols, 155",Eixample,Dreta de l'Eixample,08013,supermarket,"['Restaurant', 'For children', 'Recycled material']",,,"{'10534': 2425.7, '6669': 2328.57, '11758': 1964.58}"
47,628290eba85a7a5a0184d17c,Biobarri,Botiga amb productes alimentaris biològics i ecològics. També tenen una bona varietat de productes de cosmètica i neteja ecològics. Ofereixen una selecció de productes frescos de proximitat,,https://www.lovkombucha.com/es/bio-barri/,https://i.pinimg.com/564x/dd/6f/8e/dd6f8eeffb20cefbccad7d60f831771b.jpg,"[41.3903944, 2.1772486]","Mendez Núñez, 18",Eixample,Dreta de l'Eixample,08010,cosmetics,"['Second hand', 'Vegan food', 'Accessible']",,,"{'10534': 2724.73, '6669': 2033.55, '11758': 2196.4}"
48,628290eba85a7a5a0184d17d,Celler Nulles,"Celler amb oferta de vins ecològics, a granel  i de proximitat. Tenen oferta de productes amb envàs retornable",,http://www.cellernulles.com,https://cdn.pixabay.com/photo/2016/03/02/20/13/grocery-1232944_1280.jpg,"[41.4006314, 2.1722781]",Nàpols 239,Eixample,Dreta de l'Eixample,08001,fruits & vegetables,"['Green space', 'Recycled material', 'Local products']",,,"{'10533': 3479.82, '10534': 2713.53, '6669': 2293.77, '11758': 1589.77}"
49,628290eba85a7a5a0184d17e,Obowylu fruites i verdures,"Botiga de venda de fruites i verdures ecològiques. Tenen productes de proximitat, selecció de conserves i cereals ecològics",,,https://i.pinimg.com/564x/10/9c/0d/109c0d7130543076a878679abc0abe9d.jpg,"[41.3990716, 2.1724618]","Carrer de Roger de Flor, 202",Eixample,Dreta de l'Eixample,08013,cosmetics,"['Vegan food', 'Restaurant', 'Bar']",,,"{'10533': 3630.87, '10534': 2727.02, '6669': 2179.25, '11758': 1591.6}"
50,628290eba85a7a5a0184d17f,Ecocentre,"Supermercat de productes ecològics. Tenen varietat de productes aptes per a vegans, cosmètica i neteja",,www.ecocentre.cat,https://i.pinimg.com/564x/b7/ed/e3/b7ede31ce52cca67b321f8e7b615403e.jpg,"[41.398749, 2.169384]","Avinguda Diagonal, 329",Eixample,Dreta de l'Eixample,08009,cosmetics,"['Pharmacy', 'For children', 'Herbalist']",,,"{'10533': 3523.97, '10534': 2985.82, '6669': 1976.96, '11758': 1334.46}"
51,628290eba85a7a5a0184d180,Carnisseria Canals,Carnisseria amb selecció de carn de pollastre i vedella ecològiques. Ofereixen una selecció de begudes i productes d'alimentació ecològics,,,https://i.pinimg.com/564x/ce/84/41/ce844160a3d2dd51382d52e955e05a50.jpg,"[41.40019, 2.1691047]","Passeig Sant Joan, 114",Eixample,Dreta de l'Eixample,08001,pharmacy,"['Vegan food', 'Cosmetics', 'Plastic free']",,,"{'10533': 3374.54, '10534': 2982.43, '6669': 2086.11, '11758': 1320.99}"
52,628290eba85a7a5a0184d181,El rebost de Sant Andreu,"Venda de productes a granel, amb sel·lecció de productes ecológics, de proximitat, locals, socials i sostenibles. Vins a granel de proximitat amb sistema de dipósit d'envasos. Llegums cuits a diari. Ous ecológics, de gallines felices del Montseny. Mel crua del Perelló a granel. Directa de l'apicultor. Gran sel·lecció de tes i herbes a granel. Cistella de verdura de temporada directa de pagès. Cuinats propis. Sabons líquids i detergents en escates a granel. Botiga zero residu, on no es ven cap producte envasat en plástic i es fomenta l'ús d'envasos reutilitzables, com pots de vidre. Han incorporat una nova mesura de reutilització; els ""envasos orfe"", això consisteix en què els clients poden portar envasos que no facin servir, passen per un procés d'higienització i futurs clients poden donar una 2a vida a aquests envasos.",,https://esloqueveo.com/el_rebost_de_sant_andreu_barcelona_barcelona_espana-153595-en.html,https://cdn.pixabay.com/photo/2016/03/02/20/13/grocery-1232944_1280.jpg,"[41.4373973, 2.1892162]","Gran de Sant Andreu, 327",Sant Andreu,Sant Andreu,08030,supermarket,"['Herbalist', 'Pharmacy', 'Supermarket']",,,"{'10533': 3659.92, '10534': 3939.43, '6677': 3049.08}"
53,628290eba85a7a5a0184d182,Diet center,"Botiga amb venda de productes ecològics, biològics i orgànics. Ofereixen suplements nutricionals, productes de neteja i cosmètica ecològics. ",,www.dietcenter.es,https://i.pinimg.com/564x/52/76/a7/5276a7255d2cc0514b0af1dd8b55efc7.jpg,"[41.3839011, 2.1311316]","Joan Güell, 170",Les Corts,Les Corts,08001,supermarket,"['Accessible', 'Herbalist', 'Cosmetics']",,,"{'6681': 2009.38, '6669': 1899.77, '11758': 2483.91, '10532': 1391.64}"
54,628290eba85a7a5a0184d183,Laboratorio Aurum cosmètic,Centre de cosmètica ecològica. Comercialització de productes de fabricació pròpia a navarra (no els fabriquen a barcelona però els fan ells mateixos a navarra).,,http://www.aurumcosmetic.com/-.html,https://i.pinimg.com/564x/a8/0a/07/a80a079da685d1f7b99c21146b6e674d.jpg,"[41.406614, 2.1736261]","Lepant, 311",Eixample,Sagrada Família,08001,cosmetics,"['Supermarket', 'Vegan food', 'Second hand']",,,"{'10533': 3042.09, '10534': 2594.7, '6669': 2885.27, '11758': 1901.58}"
55,628290eba85a7a5a0184d184,Bio Món,Botiga d’alimentació ecològica. Fruita i verdura de proximitat (vilassar de mar). Selecció de cosmètica i neteja eco i begudes eco. Venta d'aigua de Sant Aniol en envàs de vidre retornable. Copa menstrual.,,https://biomon.es/,https://i.pinimg.com/564x/b7/ed/e3/b7ede31ce52cca67b321f8e7b615403e.jpg,"[41.4107174, 2.1747479]","Carrer Cartagena, 317",Eixample,Sagrada Família,08001,pharmacy,"['Vegan food', 'Supermarket', 'Plastic free']",,,"{'10533': 2809.91, '10534': 2596.97, '6669': 3318.04, '11758': 2224.26}"
56,628290eba85a7a5a0184d185,Xeito papereria,"Papereria i llibreria. Tenen oferta de paper reciclat per a imprimir i llibretes de paper reciclat, a més tenen productes recarregables.",,https://www.regalabien.com/librerias/libreriapapeleria-xeito-en-rossello-384-barcelona,https://i.pinimg.com/564x/10/9c/0d/109c0d7130543076a878679abc0abe9d.jpg,"[41.4046716, 2.1726251]","Roselló, 384",Eixample,Sagrada Família,08001,bar,"['Restaurant', 'Supermarket', 'Local products']",,,"{'10533': 3144.24, '10534': 2661.81, '6669': 2660.97, '11758': 1734.86}"
57,628290eba85a7a5a0184d186,Molsa,"Supermercat de productes ecològics i biològics. Tenen oferta d'alimentació, begudes, neteja, cosmètica i productes a granel i de proximitat",,http://molsa.bio,https://i.pinimg.com/564x/ce/84/41/ce844160a3d2dd51382d52e955e05a50.jpg,"[41.4067273, 2.176021]","Carrer de Padilla, 264",Eixample,Sagrada Família,08001,bar,"['Second hand', 'Bar', 'Plastic free']",,,"{'10533': 3177.04, '10534': 2398.08, '6669': 3014.04, '11758': 2086.27}"
58,628290eba85a7a5a0184d187,Patchcat,"Botiga amb venda d'estris i elements per a fer patchwork i manualitats.<br />
Fan reutilització de roba, cursos de recuperació de mobles, reutilització de caixes, confecció de bosses,... que després poden vendre. Fan bosses de cotó per vendre la guata i reutilitzar en properes compres. Tenen fil de cotó bio per teixir i de cotó 100%.",,,https://i.pinimg.com/564x/dd/a3/6e/dda36e4305073dba20a161b41987a5b3.jpg,"[41.4024495, 2.1758581]",València 431,Eixample,Sagrada Família,08013,supermarket,"['Cosmetics', 'Allows pets', 'Recycled material']",,,"{'10533': 3507.72, '10534': 2396.04, '6669': 2645.44, '11758': 1919.19}"
59,628290eba85a7a5a0184d188,Bureau Vallée,"Tenen llibretes de paper reciclat, tòner eco i llapis eco. Carpetes i carpesans a partir de paper reciclat, col·lecció de motxilles i estoigs ""save the ocean"", elaborats a partir de plàstic del mar reciclat. Bolígrafs de plàstic reciclat d'ampolles.",,http://bureau-vallee.es/barcelona-sagrada-familia/,https://cdn.pixabay.com/photo/2016/03/02/20/13/grocery-1232944_1280.jpg,"[41.4066077, 2.1774989]",Provença 504,Eixample,Sagrada Família,08001,beverages,"['For children', 'Recycled material', 'Vegan food']",,,"{'10533': 3277.54, '10534': 2274.15, '6669': 3081.09, '11758': 2193.11}"
60,628290eba85a7a5a0184d189,Pura vida,Botiga d'herbodietètica i osteopatia. Tenen aliments biològics i cosmètica bio. Medicina fitoterapèutica i ortomolecular,,https://shencorpore.es,https://i.pinimg.com/564x/dd/a3/6e/dda36e4305073dba20a161b41987a5b3.jpg,"[41.4066876, 2.1804357]","Carrer de Cartagena, 222",Eixample,Sagrada Família,08001,supermarket,"['Plastic free', 'Allows pets', 'Second hand']",,,"{'10533': 3459.62, '10534': 2033.01, '6669': 3250.05, '11758': 2422.94}"
61,628290eba85a7a5a0184d18a,El graner,"Tenen producte a granel, tant d'alimentació com neteja, també tenen selecció de productes eco i bio. Algun producte de comerç just. Afavoreixen portar l'envàs amb un descompte.",,https://elgraner.food.blog/,https://i.pinimg.com/564x/f7/cc/f3/f7ccf366101db1b54067ecca8418bfe6.jpg,"[41.4067681, 2.1773438]",Provença 495,Eixample,Sagrada Família,08001,bar,"['Supermarket', 'Pharmacy', 'Bakery']",,,"{'10533': 3256.05, '10534': 2289.4, '6669': 3086.56, '11758': 2188.46}"
62,628290eba85a7a5a0184d18b,Lettuce family,Botiga de venda de fruita i verdura amb selecció de productes ecològics i de proximitat,,http://www.lettucefamily.com,https://i.pinimg.com/564x/8c/d4/b7/8cd4b7791b6db9189a2f9ac9bd6e81a0.jpg,"[41.4027186, 2.1533525]","Astúries, 8",Gràcia,Vila de Gràcia,08012,supermarket,"['Restaurant', 'Cosmetics', 'Recycled material']",,,"{'10533': 2635.85, '6669': 1932.81, '11758': 442.08, '10532': 3608.86}"
63,628290eba85a7a5a0184d18c,De tela,Botiga especialitzada en venda de bolquers de tela reutilitzables. Ecocriança i comètica bio,,http://detela.cat,https://i.pinimg.com/564x/8c/d4/b7/8cd4b7791b6db9189a2f9ac9bd6e81a0.jpg,"[41.4023585, 2.1608149]","Carrer de Puigmartí, 48",Gràcia,Vila de Gràcia,08001,fruits & vegetables,"['Accessible', 'Vegan food', 'Second hand']",,,"{'10533': 2846.21, '10534': 3649.35, '6669': 1980.24, '11758': 738.68}"
64,628290eba85a7a5a0184d18d,Vinoteca de Gràcia. Wine Palace,Botiga de venda de vins orgànics. Tenen selecció de vins a granel i embotellats. Amb ampolles i garrafes de retorn de vidre,,https://www.winepalace.es/es/tiendas/544000024/vinoteca-de-gracia-by-wine-palace,https://i.pinimg.com/564x/dd/6f/8e/dd6f8eeffb20cefbccad7d60f831771b.jpg,"[41.4047931, 2.1557669]","Verdi, 67",Gràcia,Vila de Gràcia,08012,restaurant,"['Vegan food', 'For children', 'Local products']",,,"{'10533': 2454.18, '6669': 2169.16, '11758': 701.46, '10532': 3896.45}"
65,628290eba85a7a5a0184d18e,Rekup & Co,Botiga de venda de mobles de fusta recuperada. Productes de decoració. Tot reciclat,,https://www.rekupandco.com,https://i.pinimg.com/564x/01/d6/73/01d6739c176f5ee7f0192c4a3914d8d3.jpg,"[41.404653, 2.155916]","Carrer de Verdi, 63",Gràcia,Vila de Gràcia,08012,cosmetics,"['Allows pets', 'Fruits & vegetables', 'For children']",,,"{'10533': 2472.51, '6669': 2154.6, '11758': 690.23, '10532': 3899.62}"
66,628290eba85a7a5a0184d18f,La besnéta,Botiga de venda de pastisseria vegana. Tots els productes són de producció pròpia. Fan servir farines ecològiques i fruita de proximitat. Tenen selecció de begudes i melmelades de proximitat. Tot vegà,,http://www.labesneta.com,https://i.pinimg.com/564x/25/ae/91/25ae91b15d98490d89536c69a617a237.jpg,"[41.4038734, 2.1582651]","Torrijos, 37",Gràcia,Vila de Gràcia,08001,alimentation,"['Bakery', 'Recycled material', 'Accessible']",,,"{'10533': 2613.64, '10534': 3858.05, '6669': 2093.88, '11758': 700.79}"
67,628290eba85a7a5a0184d190,EcoLògic,Botiga de venda de productes frescos ecològics. Tenen fruita i verdura de proximitat i begudes eco,,http://www.eco-logic.cat,https://i.pinimg.com/564x/8c/d4/b7/8cd4b7791b6db9189a2f9ac9bd6e81a0.jpg,"[41.4000915, 2.1537013]","Plaça de la llibertat, 6",Gràcia,Vila de Gràcia,08012,alimentation,"['Restaurant', 'Fruits & vegetables', 'Recycled material']",,,"{'10533': 2928.75, '6669': 1640.32, '11758': 152.25, '10532': 3508.04}"
68,628290eba85a7a5a0184d191,Gra de Gràcia Astúries,"Botiga de venda de producte a granel de proximitat i ecològic. Ofereixen envasos biodegradables, bosses de paper o envasos de vidre i bosses de roba reutilitzables. Més l’opció de portar el propi envàs i tenir descompte. També tenen begudes i productes aptes per intoleràncies alimenticies. ",,https://gradegracia.cat,https://i.pinimg.com/564x/71/d1/5b/71d15bfec596e1b7866ae3bc12e381d3.jpg,"[41.4032144, 2.154186]","Astúries, 26",Gràcia,Vila de Gràcia,08012,bakery,"['For children', 'Supermarket', 'Local products']",,,"{'10533': 2594.47, '6669': 1987.78, '11758': 501.66, '10532': 3696.15}"
69,628290eba85a7a5a0184d192,Gra de Gràcia Puigmartí,"Botiga de venda de producte a granel de proximitat i ecològic. Ofereixen envasos biodegradables, bosses de paper o envasos de vidre i bosses de roba reutilitzables. Més l’opció de portar el propi envàs i tenir descompte. També tenen begudes i productes aptes per intoleràncies alimenticies. ",,https://gradegracia.cat,https://i.pinimg.com/564x/52/76/a7/5276a7255d2cc0514b0af1dd8b55efc7.jpg,"[41.4015304, 2.1590545]","Puigmartí, 11",Gràcia,Vila de Gràcia,08012,beverages,"['Supermarket', 'Beverages', 'Bar']",,,"{'10533': 2881.46, '10534': 3801.26, '6669': 1852.45, '11758': 565.39, '10532': 3981.41}"
70,628290eba85a7a5a0184d193,Carnisseria Diego,"Botiga de venda de carn ecològica. Tenen vedella, xai i pollastre. Hamburgueses d'elaboració pròpia",,,https://i.pinimg.com/564x/83/3b/9a/833b9a1f93b05d381bc442a45fca6197.jpg,"[41.401376, 2.1588133]","Puigmartí, 5",Gràcia,Vila de Gràcia,08001,alimentation,"['Bakery', 'Local products', 'Accessible']",,,"{'10533': 2891.39, '10534': 3822.55, '6669': 1831.09, '11758': 539.17, '10532': 3956.18}"
71,628290eba85a7a5a0184d194,Mina mina workshop,Botiga de venda de teles. Tenen cotons orgànics estampats i fan tallers de reaprofitament,,http://minaminero.blogspot.com/,https://i.pinimg.com/564x/83/3b/9a/833b9a1f93b05d381bc442a45fca6197.jpg,"[41.4047606, 2.1571042]","Plaça de la Virreina, 7",Gràcia,Vila de Gràcia,08001,alimentation,"['Plastic free', 'Green space', 'Vegan food']",,,"{'10533': 2489.41, '10534': 3956.05, '6669': 2176.76, '11758': 737.53, '10532': 3992.08}"
72,628290eba85a7a5a0184d195,Les 9 fonts,"Centre de teràpies i productes naturals; tenen selecció de productes d'alimentació biològics, fan massatges, tenen cosmètica biològica i natural. Medicina ortomolecular i fitoteràpia. ",,https://www.les9fonts.com/,https://cdn.pixabay.com/photo/2016/03/02/20/13/grocery-1232944_1280.jpg,"[41.3851367, 2.159002]","Carrer de Casanova, 63",Eixample,L'Antiga Esquerra de l'Eixample,08001,bar,"['Restaurant', 'Plastic free', 'Cosmetics']",,,"{'6669': 432.75, '11758': 1583.85, '10532': 3667.75}"
73,628290eba85a7a5a0184d196,Catalunya Freedom,Roba de cotó orgànic produïda a Mataró i de disseny propi,,http://www.catalunyafreedom.cat,https://i.pinimg.com/564x/dd/6f/8e/dd6f8eeffb20cefbccad7d60f831771b.jpg,"[41.3901766, 2.1575061]","Carrer de Mallorca, 197",Eixample,L'Antiga Esquerra de l'Eixample,08001,bakery,"['Vegan food', 'Bakery', 'Beverages']",,,"{'6669': 619.43, '11758': 1012.67, '10532': 3546.14}"
74,628290eba85a7a5a0184d197,Strata bakery,"Pastisseria amb productes vegans (pastissos, pastes, empanades) tot d'elaboració pròpia per a emportar.",,www.stratabakery.com,https://i.pinimg.com/564x/fb/ef/60/fbef60ff298f65e2cb8757827aa1dfb7.jpg,"[41.3878994, 2.1525886]","Carrer de Provença, 158",Eixample,L'Antiga Esquerra de l'Eixample,08036,alimentation,"['Local products', 'Bar', 'Herbalist']",,,"{'6681': 3686.77, '6669': 302.62, '11758': 1207.58, '10532': 3123.66}"
75,628290eba85a7a5a0184d198,Farmàcia provença 156,"Tenen compreses de cotó orgànic, copa menstrual, linia de cosmètica pròpia i fan fòrmules magistrals.",,http://www.farmaciaprovenza156.com/es/,https://i.pinimg.com/564x/10/9c/0d/109c0d7130543076a878679abc0abe9d.jpg,"[41.3878439, 2.1525148]","Carrer de Provença, 156",Eixample,L'Antiga Esquerra de l'Eixample,08036,alimentation,"['For children', 'Vegan food', 'Plastic free']",,,"{'6681': 3678.3, '6669': 299.02, '11758': 1214.1, '10532': 3117.42}"
76,628290eba85a7a5a0184d199,Cloudstreet bakery,Forn de pa 100 % ecològic. Fan massa mare i tenen forn de llenya. Treballen amb diferents tipus de farines ecològiques i també fan pastes amb un 90% d'ingredients ecològics.,,https://www.cloudstreet.es/,https://i.pinimg.com/564x/f7/cc/f3/f7ccf366101db1b54067ecca8418bfe6.jpg,"[41.38847, 2.151088]","Carrer del Rosselló, 112",Eixample,L'Antiga Esquerra de l'Eixample,08036,bakery,"['Beverages', 'Restaurant', 'Supermarket']",,,"{'6681': 3615.46, '6669': 416.12, '11758': 1158.27, '10532': 3000.12}"
77,628290eba85a7a5a0184d19a,BioPompas El Ninot,"Productes de neteja per a la llar, detergents, higiene i cura personal i rentat de roba biodegradables a granel amb envasos reutilitzables. També tenen una linia d'higiene animal, personal i ecològica..",,https://biopompas.com/,https://i.pinimg.com/564x/52/76/a7/5276a7255d2cc0514b0af1dd8b55efc7.jpg,"[41.3877017, 2.1545769]","Carrer Mallorca, 150",Eixample,L'Antiga Esquerra de l'Eixample,08036,pharmacy,"['Cosmetics', 'Recycled material', 'Plastic free']",,,"{'6681': 3817.93, '6669': 270.06, '11758': 1231.76, '10532': 3289.28}"
78,628290eba85a7a5a0184d19b,Uve-i vinaters,"Botiga amb venda de vins ecològics, biodinàmics, naturals i de proximitat. Tenen vins envasats en back in box (envasos 5 llitres)",,,https://cdn.pixabay.com/photo/2016/03/02/20/13/grocery-1232944_1280.jpg,"[41.3859105, 2.1582796]","Carrer de Casanova, 76",Eixample,L'Antiga Esquerra de l'Eixample,08001,supermarket,"['Beverages', 'Restaurant', 'Bar']",,,"{'6681': 3998.99, '6669': 377.26, '11758': 1484.17, '10532': 3602.41}"
79,628290eba85a7a5a0184d19c,Casa Ruiz Granel Selecto (Aribau),"Botiga amb venda a granel de llegums, fruits secs, arrossos, pastes, cereals, grans, farines, sèmoles, espècies,  tes, infusions, llavors, cacaus, xocolata, fruites deshidratades, algues i bolets deshidratats. També tenen selecció de productes ecològics i de proximitat.<br />
Altres botigues als carrers <a href=""https://www.bcnsostenible.cat/web/punt/casa-ruiz-granel-selecto-bruc"" target=""_blank"">Bruc </a>i <a href=""https://www.bcnsostenible.cat/web/punt/casa-ruiz-granel-selecto"" target=""_blank"">Muntaner</a>.",,https://casaruizgranel.com/ca/,https://i.pinimg.com/564x/71/d1/5b/71d15bfec596e1b7866ae3bc12e381d3.jpg,"[41.3933137, 2.1523881]","Carrer d'Aribau, 169",Eixample,L'Antiga Esquerra de l'Eixample,08001,bar,"['Herbalist', 'For children', 'Second hand']",,,"{'10533': 3661.85, '6669': 894.67, '11758': 609.41, '10532': 3173.33}"
80,628290eba85a7a5a0184d19d,Columpiu,Mobles i objectes diversos de segona mà,,,https://i.pinimg.com/564x/f7/cc/f3/f7ccf366101db1b54067ecca8418bfe6.jpg,"[41.3911583, 2.1509713]","Carrer de Casanova, 159",Eixample,L'Antiga Esquerra de l'Eixample,08001,others,"['Pharmacy', 'Beverages', 'Local products']",,,"{'10533': 3891.06, '6681': 3781.06, '6669': 689.29, '11758': 867.08, '10532': 3016.09}"
81,628290eba85a7a5a0184d19e,Vins & Co,"Botiga amb oferta de vins catalans de petita producció; el 100% de l'oferta és de proximitat. Tenen vins ecològics, biodinàmics i naturals.",,http://www.vinsandco.cat,https://i.pinimg.com/564x/71/d1/5b/71d15bfec596e1b7866ae3bc12e381d3.jpg,"[41.3938923, 2.1519003]","Carrer d'Aribau, 177",Eixample,L'Antiga Esquerra de l'Eixample,08001,bar,"['Herbalist', 'Pharmacy', 'Recycled material']",,,"{'10533': 3593.92, '6669': 964.39, '11758': 553.41, '10532': 3147.43}"
82,628290eba85a7a5a0184d19f,Perruqueria Integral Barcelona,Perruqueria amb venda de productes naturals i ecològics. Fan tractaments de bellesa i de prerruqueria amb els mateixos productes.,,https://www.integral.barcelona,https://i.pinimg.com/564x/dd/a3/6e/dda36e4305073dba20a161b41987a5b3.jpg,"[41.3852042, 2.1521103]","Carrer del Comte Borrell, 205",Eixample,La Nova Esquerra de l'Eixample,08001,fruits & vegetables,"['Pharmacy', 'Cosmetics', 'For children']",,,"{'6681': 3503.44, '6669': 143.6, '11758': 1509.2, '10532': 3093.9}"
83,628290eba85a7a5a0184d1a0,Casa Artesà,"Queviures amb productes d'alimentació 100% ogànics, ecològics i /o biològics. Tenen fruita i verdura de proximitat i ecològica, grans, pasta, farines i llegums a granel, begudes, tes i melmelades ecològiques.",,https://www.casaartesa.com,https://i.pinimg.com/564x/f7/cc/f3/f7ccf366101db1b54067ecca8418bfe6.jpg,"[41.3798612, 2.1522018]","Carrer de Rocafort, 109",Eixample,La Nova Esquerra de l'Eixample,08015,supermarket,"['Allows pets', 'Second hand', 'Supermarket']",,,"{'6681': 3276.08, '6669': 624.03, '11758': 2101.88, '10532': 3205.4}"
84,628290eba85a7a5a0184d1a1,Super Orgànic,"Supermercat de productes ecològics. Tenen articles de cosmètica, neteja, alimentació, fruita i verdura, productes frescos, congelats, làctics, embutits, menjar preparat i hamburgueses vegetals. ",,,https://i.pinimg.com/564x/b7/ed/e3/b7ede31ce52cca67b321f8e7b615403e.jpg,"[41.3805929, 2.1451691]","Carrer de Llançà, 56",Eixample,La Nova Esquerra de l'Eixample,08001,bar,"['Bakery', 'Herbalist', 'Cosmetics']",,,"{'6681': 2758.12, '6669': 894.31, '11758': 2131.41, '10532': 2619.15}"
85,628290eba85a7a5a0184d1a2,Petit pijama,Botiga infantil especialitzada en pijames. Tenen roba de nadó de cotó orgànic i gairebé tota l'oferta és de proximitat. També venen joguines i contes,,https://www.petitpijama.com,https://cdn.pixabay.com/photo/2016/03/02/20/13/grocery-1232944_1280.jpg,"[41.3852033, 2.1467743]",Roselló 38,Eixample,La Nova Esquerra de l'Eixample,08029,bar,"['Restaurant', 'Supermarket', 'Green space']",,,"{'6681': 3116.55, '6669': 588.17, '11758': 1603.37, '10532': 2650.5}"
86,628290eba85a7a5a0184d1a3,Granel Eixample,"Cereals, llegums, gra, farines, pasta, arrossos, fruits secs, olis, ous, algues de proximitat i a granel. Tenen vins, sucs i caves de proximitat. Herbes, deshidratats i tes a granel. També ofereixen fruita i verdura de proximitat de petits productors. ",,https://granel.cat/ca/,https://i.pinimg.com/564x/8c/d4/b7/8cd4b7791b6db9189a2f9ac9bd6e81a0.jpg,"[41.3850872, 2.1432018]","Carrer d'Entença, 191",Eixample,La Nova Esquerra de l'Eixample,08029,bakery,"['For children', 'Herbalist', 'Local products']",,,"{'6681': 2859.69, '6669': 886.46, '11758': 1739.93, '10532': 2355.43}"
87,628290eba85a7a5a0184d1a4,Fruites Ester,Fruites i verdures de proximitat i de temporada,,,https://i.pinimg.com/564x/10/9c/0d/109c0d7130543076a878679abc0abe9d.jpg,"[41.3764659, 2.152142]",Vilamari 35,Eixample,Sant Antoni,08001,alimentation,"['For children', 'Herbalist', 'Cosmetics']",,,"{'6681': 3171.59, '6669': 996.66, '11758': 2479.27, '10532': 3320.69}"
88,628290eba85a7a5a0184d1a5,Roba interior La Torre,Roba interior de cotó orgànic i/o de proximitat,,,https://i.pinimg.com/564x/52/76/a7/5276a7255d2cc0514b0af1dd8b55efc7.jpg,"[41.38483, 2.1636]",Plaça Universitat 4,Eixample,Sant Antoni,08001,non-alimentation,"['Plastic free', 'Herbalist', 'Beverages']",,,"{'6669': 817.73, '11758': 1766.2}"
89,628290eba85a7a5a0184d1a6,Farmàcia Agustí Pujades,"Venda de productes cosmètics ecològics, copa menstrual i compreses de cotó orgànic. Fan fòrmules magistrals i tenen una linia de cosmètica natural pròpia.",,,https://i.pinimg.com/564x/ce/84/41/ce844160a3d2dd51382d52e955e05a50.jpg,"[41.3762971, 2.1546493]",Avinguda Mistral 48,Eixample,Sant Antoni,08015,cosmetics,"['Plastic free', 'Herbalist', 'Bakery']",,,"{'6681': 3372.83, '6669': 1007.89, '11758': 2498.1, '10532': 3522.56}"
90,628290eba85a7a5a0184d1a7,Bebe-té,Tes a granel. Tenen una selecció de productes d'alimentació de proximitat. Fan descompte si es porta l'envàs,,www.bebe-te.com,https://i.pinimg.com/564x/dd/a3/6e/dda36e4305073dba20a161b41987a5b3.jpg,"[41.375664, 2.1613271]",Parlament 7,Eixample,Sant Antoni,08015,fruits & vegetables,"['For children', 'Accessible', 'Fruits & vegetables']",,,"{'6681': 3910.29, '6669': 1244.87, '11758': 2650.42}"
91,628290eba85a7a5a0184d1a8,La deessa del bosc,"Venda d'herbes a granel. Tenen alimentació envasada ecològica, mel de proximitat, begudes i frescos ecològics. Cosmètica ecològica i/o biològica.",,www.ladeessadelbosc.com,https://i.pinimg.com/564x/ce/84/41/ce844160a3d2dd51382d52e955e05a50.jpg,"[41.3765539, 2.1606163]",Manso 34,Eixample,Sant Antoni,08015,supermarket,"['Vegan food', 'Cosmetics', 'Allows pets']",,,"{'6681': 3867.59, '6669': 1129.52, '11758': 2539.99, '10532': 3983.37}"
92,628290eba85a7a5a0184d1a9,Idoni,"Venda de llegums, gra, arrossos, farines, fruits secs i condiments a granel. Productes ecològics i biològics envasats d'alimentació. Begudes i llegum cuita de proximitat a granel. Fan menjar de proximitat i/o ecològic preparat per emportar. Pots comprar i retornar ampolles de vi per la seva reutilització ja que està adherit al projecte <a href=""http://www.rewine.cat/"">Rewine</a>.",,www.idoni.cat,https://i.pinimg.com/564x/52/76/a7/5276a7255d2cc0514b0af1dd8b55efc7.jpg,"[41.3769005, 2.1567859]",Avinguda Mistral 20 bis,Eixample,Sant Antoni,08001,others,"['For children', 'Bar', 'Vegan food']",,,"{'6681': 3560.77, '6669': 970.47, '11758': 2445.29, '10532': 3667.77}"
93,628290eba85a7a5a0184d1aa,Casa Ramona,"Espai destinat a la venda de productes agroalimentaris a granel, com pastes, gra, fruita seca, galetes, mels, melmelades, fruita deshidratada, cereals, farines, arrossos, cafe, cacau, sals, sucres, olives, llegums, cereals, llavors, tesm herbes aromàtiques, infusions, ous ecològics, vins, cerveses artesanes, texturitzats. Posant especial atenció en els productes locals, ecològics o saludables, incentivant el seu coneixement i cosum, i alhora, lliure d'envasos de plàstic, no produint cap mensa de residu no degradable al medi ambient, en definitiva promouen una compra saludable, responsable i sostenible.",,www.casaramona.bio,https://i.pinimg.com/564x/01/d6/73/01d6739c176f5ee7f0192c4a3914d8d3.jpg,"[41.3774579, 2.1595683]",Tamarit 134,Eixample,Sant Antoni,08015,others,"['Local products', 'Beverages', 'Fruits & vegetables']",,,"{'6681': 3800.66, '6669': 999.01, '11758': 2422.35, '10532': 3870.02}"
94,628290eba85a7a5a0184d1ab,The living food,"Venda de productes ecològics envasats i cosmètica bio. També tenen productes de neteja ecològics i fan formatges orgànics, crudivegans i lactofermentats",,www.thelivingfood.com,https://cdn.pixabay.com/photo/2016/03/02/20/13/grocery-1232944_1280.jpg,"[41.3787809, 2.15809]",Viladomat 85,Eixample,Sant Antoni,08015,pharmacy,"['For children', 'Plastic free', 'Supermarket']",,,"{'6681': 3713.64, '6669': 811.62, '11758': 2254.12, '10532': 3710.99}"
95,628290eba85a7a5a0184d1ac,Visalut,"Herbolari on es pot trobar suplementació natural, dietètica ecològica, teràpies alternatives i cosmètica natural. També s'hi pot trobar productes d'alimentació ecològics i sistema de cistelles. ",,https://www.besalut.com/,https://i.pinimg.com/564x/71/d1/5b/71d15bfec596e1b7866ae3bc12e381d3.jpg,"[41.38677702, 2.1333341]","Carrer de Vilamur, 15",Les Corts,Les Corts,08001,bar,"['Fruits & vegetables', 'Local products', 'Bar']",,,"{'6681': 2371.07, '6669': 1716.69, '11758': 2137.3, '10532': 1519.08}"
96,628290eba85a7a5a0184d1ad,Cal Fruitós,Venda de fruites i verdures amb oferta ecològica i de proximitat. També es poden trobar olives i fuits secs a granel i productes artesans com pizzes. ,,https://www.calfruitos.com/,https://i.pinimg.com/564x/01/d6/73/01d6739c176f5ee7f0192c4a3914d8d3.jpg,"[41.3825469, 2.1308832]","Carrer de Lluçà, 38",Les Corts,Les Corts,08001,pharmacy,"['Recycled material', 'Cosmetics', 'Fruits & vegetables']",,,"{'6681': 1885.77, '6669': 1938.8, '11758': 2601.34, '10532': 1422.88}"
97,628290eba85a7a5a0184d1ae,Pastisseria Jaume,Pastisseria artesana des de 1970 amb obrador propi. ,,,https://i.pinimg.com/564x/52/76/a7/5276a7255d2cc0514b0af1dd8b55efc7.jpg,"[41.381964, 2.1317403]","Carrer de Joan Güell, 135",Les Corts,Les Corts,08001,supermarket,"['Fruits & vegetables', 'Supermarket', 'Allows pets']",,,"{'6681': 1892.55, '6669': 1880.13, '11758': 2596.41, '10532': 1514.21}"
98,628290eba85a7a5a0184d1af,Naty Blanco Estilistes,"Saló de perruqueria Unisex i venda de productes ecològics. <br />
Treballen tot amb productes de la casa AVEDA, que produeix amb energia 100% eòlica, molts productes són  derivats d'ingredients naturals, algun producte orgànic certificat",,http://estilistasnatyblanco.com/,https://i.pinimg.com/564x/25/ae/91/25ae91b15d98490d89536c69a617a237.jpg,"[41.3894095, 2.1397281]","Travessera de les Corts, 340",Les Corts,Les Corts,08029,supermarket,"['For children', 'Vegan food', 'Recycled material']",,,"{'6681': 2947.23, '6669': 1259.85, '11758': 1541.08, '10532': 2061.54}"
99,628290eba85a7a5a0184d1b0,La Peculiar,"Vi a granel, de proximitat i ecològic, fruits secs a granel, olis de proximitat. Disposen d'envàs reutilitzable per al vermut a granel. ",,,https://i.pinimg.com/564x/fb/ef/60/fbef60ff298f65e2cb8757827aa1dfb7.jpg,"[41.3842442, 2.1325371]","Carrer de Can Bruixa, 23 - 33",Les Corts,Les Corts,08001,bar,"['Green space', 'Recycled material', 'Bar']",,,"{'6681': 2117.24, '6669': 1779.94, '11758': 2371.45, '10532': 1494.69}"
100,628290eba85a7a5a0184d1b1,Biaitee,"Moda Urbana per home, dona i nens/es feta a mà a Barcelona, a més de complements fets per altres dissenyadors locals. Teles reciclades, producció i reformes pròpies.",,http://www.biaitee.cat/,https://i.pinimg.com/564x/a8/0a/07/a80a079da685d1f7b99c21146b6e674d.jpg,"[41.3867484, 2.1803568]","Carrer dels Carders, 28",Ciutat Vella,"Sant Pere, Santa Caterina i la Ribera",08003,beverages,"['Beverages', 'Plastic free', 'Pharmacy']",,,"{'10534': 2773.48, '6669': 2219.24, '11758': 2615.53}"
101,628290eba85a7a5a0184d1b2,Herbolari El Bosquet,"Herbolari tradicional des de 1935 amb servei de naturopatia i oferta de plantes, fòrmules pròpies i personalitzades a granel. A més d'altres productes naturals. ",,https://ajuntament.barcelona.cat/ciutatvella/comerc/es/herbolari-el-bosquet,https://i.pinimg.com/564x/71/d1/5b/71d15bfec596e1b7866ae3bc12e381d3.jpg,"[41.3855143, 2.1789021]","Carrer de Colomines, 2",Ciutat Vella,"Sant Pere, Santa Caterina i la Ribera",08003,pharmacy,"['Herbalist', 'Fruits & vegetables', 'Allows pets']",,,"{'10534': 2955.99, '6669': 2092.46, '11758': 2587.4}"
102,628290eba85a7a5a0184d1b3,IVORI,"IVORI és un espai acollidor i seductor dedicat al disseny català 100%. Roba, sabates, bosses i complements, curosament seleccionats per Carola Alexandre per oferir un producte de qualitat alhora que original, atractiu i assequible.",,http://www.ivoribarcelona.com/,https://i.pinimg.com/564x/71/d1/5b/71d15bfec596e1b7866ae3bc12e381d3.jpg,"[41.3841276, 2.1808214]","Carrer dels Mirallers, 7",Ciutat Vella,"Sant Pere, Santa Caterina i la Ribera",08001,supermarket,"['Recycled material', 'Bar', 'Cosmetics']",,,"{'10534': 2955.14, '6669': 2256.54, '11758': 2807.02}"
103,628290eba85a7a5a0184d1b4,Rosanna DLR - Pl. Sant Pere,"A Rosanna DLR trobaràs les col·leccions de bijuteria artesanals dissenyades per Rosanna de la Riva, aportant més de 36 anys d'experiència i creativitat a la marca. En el seu taller del barri Gòtic de Barcelona crea constantment peces úniques i especials. <br />
El seu propòsit és oferir bijuteria feta a Barcelona als que busquen productes locals i de qualitat. <br />
 ",,http://www.rosannadlr.com/,https://i.pinimg.com/564x/a8/0a/07/a80a079da685d1f7b99c21146b6e674d.jpg,"[41.3893043, 2.1788768]","Plaça de Sant Pere, 13",Ciutat Vella,"Sant Pere, Santa Caterina i la Ribera",08001,pharmacy,"['Beverages', 'Herbalist', 'Green space']",,,"{'10534': 2683.83, '6669': 2136.17, '11758': 2371.32}"
104,628290eba85a7a5a0184d1b5,Rosanna DLR - Pl. de la Llana,"A Rosanna DLR trobaràs les col·leccions de bijuteria artesanals dissenyades per Rosanna de la Riva, aportant més de 36 anys d'experiència i creativitat a la marca. En el seu taller del barri Gòtic de Barcelona crea constantment peces úniques i especials. <br />
El seu propòsit és oferir bijuteria feta a Barcelona als que busquen productes locals i de qualitat. <br />
 ",,http://www.rosannadlr.com/,https://i.pinimg.com/564x/f7/cc/f3/f7ccf366101db1b54067ecca8418bfe6.jpg,"[41.3849832, 2.1794201]","Plaça de la Llana, 14",Ciutat Vella,"Sant Pere, Santa Caterina i la Ribera",08001,cosmetics,"['Allows pets', 'Plastic free', 'Restaurant']",,,"{'10534': 2966.44, '6669': 2135.96, '11758': 2656.64}"
105,628290eba85a7a5a0184d1b6,Santa Siesta,"Botiga de marca pròpia  especialitzada en tèxtil per la llar, fet a partir de teixits reutilitzats, i complements, tot fet 100% a Barcelona.  Tel·ler i confecció pròpies. Alguns complements com espelmes artesanals, naturals i sabons, olis,...",,http://www.santasiesta.com/,https://i.pinimg.com/564x/83/3b/9a/833b9a1f93b05d381bc442a45fca6197.jpg,"[41.3831224, 2.1782138]","Carrer de la Dagueria, 14",Ciutat Vella,Barri Gòtic,08002,non-alimentation,"['For children', 'Vegan food', 'Fruits & vegetables']",,,"{'10534': 3184.93, '6669': 2049.87, '11758': 2703.12}"
106,628290eba85a7a5a0184d1b7,Kabraloka,Roba de nens i nenes de producció artesanal i 100% local pintada a mà. En alguns casos feta a partir de la reutilització de teixits antics o de cotó orgànic.,,http://kabraloka-bcnkabraloka.blogspot.com/,https://i.pinimg.com/564x/71/d1/5b/71d15bfec596e1b7866ae3bc12e381d3.jpg,"[41.38183, 2.1784676]","Ciutat, 14",Ciutat Vella,Barri Gòtic,08002,pharmacy,"['Local products', 'Plastic free', 'Restaurant']",,,"{'10534': 3276.5, '6669': 2092.89, '11758': 2813.35}"
107,628290eba85a7a5a0184d1b8,Dualart disseny,"Dualart és la botiga-taller d'Amparo Valencia i Isabel Arlà, dissenyadores de joies i gemmòlogues, on crean i exposen les seves pròpies coll·leccions. També trobaràs joia, pintura, escultura i artesanía d'altres autors. Es realitzen peces exclusives, encàrrecs personalitzats, cursets monogràfics i recuperació de joies antigues. ",,http://www.dualart.es/,https://i.pinimg.com/564x/10/9c/0d/109c0d7130543076a878679abc0abe9d.jpg,"[41.3819105, 2.1767587]","Carrer del Pas de l'Ensenyança, 2",Ciutat Vella,Barri Gòtic,08002,others,"['Plastic free', 'Recycled material', 'Herbalist']",,,"{'10534': 3366.25, '6669': 1951.23, '11758': 2702.8}"
108,628290eba85a7a5a0184d1b9,Yellow Bakery,"Yellow Bakery és un forn de pa on tots els seus productes són fets a base d'una massa mare orgànica a l'obrador situat al mateix local de forma artesanal. Les farines i vegetals utilitzats són locals i ecològics. A més a més, no generen residus ja que tot el que sobra ho reparteixen a gent més necessitada cada nit. ",,http://yellowbakery.es/ca/,https://i.pinimg.com/564x/dd/6f/8e/dd6f8eeffb20cefbccad7d60f831771b.jpg,"[41.3814384, 2.1790926]","Carrer del Regomir, 4.B",Ciutat Vella,Barri Gòtic,08002,pharmacy,"['Accessible', 'For children', 'Green space']",,,"{'10534': 3275.21, '6669': 2152.5, '11758': 2881.24}"
109,628290eba85a7a5a0184d1ba,Konfetti.Kids,"Konfetti Kids ofereix moda i complements pels petits de 0 a 8 anys. En aquesta botiga s'hi reuneixen un munt de marques europees, que treballen amb cotó orgànic la majoria, i que tenen una gran qualitat i un estil desenfadat, modern i unisex. També hi podem trobar cosmètica natural i ecològica per nens i nenes. Raspalls de bambú, rossegadors de goma natural fets a ma a l'India, joguines de fusta.",,https://konfetti-kids.com/,https://i.pinimg.com/564x/f7/cc/f3/f7ccf366101db1b54067ecca8418bfe6.jpg,"[41.3820083, 2.1792768]","Baixada de Viladecols, 2",Ciutat Vella,Barri Gòtic,08002,bar,"['Second hand', 'Vegan food', 'Pharmacy']",,,"{'10534': 3217.1, '6669': 2155.76, '11758': 2850.93}"
110,628290eba85a7a5a0184d1bb,Farmàcia M.Gironès Saderra,"Farmàcia especialitzada en productes naturals, medicinals i cosmètics. ",,,https://i.pinimg.com/564x/8c/d4/b7/8cd4b7791b6db9189a2f9ac9bd6e81a0.jpg,"[41.3792, 2.1760827]","Carrer Escudellers, 8 ",Ciutat Vella,Barri Gòtic,08002,herbalist,"['Plastic free', 'Supermarket', 'Vegan food']",,,"{'10534': 3627.62, '6669': 1978.76, '11758': 2882.29}"
111,628290eba85a7a5a0184d1bc,Home on Earth. Gòtic,"Home on Earth neix al 2001 de la mà d'una parella danesa-alemany, obren la primera de les seves botigues el 2010, la segona al 2014 i a inicis de l'any 2019 obren la tercera botiga a Barcelona. Ofereixen productes naturals i sostenibles per la llar amb un disseny nordic.<br />
<br />
Treballen conjuntament amb artesans d'arreu amb els qui han conviscut durant anys, sempre amb els mateixos i amb un tracte directe i just. Dins de la seva exquisita varietat pots trobar articles per la casa, utils de cuina, artícles de yoga, hamaques, bosses, joyeria... A més a més, treballen amb associacions socials inclusives com Estel Tapia o Barmhärzige Brüder a Austria.<br />
<br />
Home on earth utilitza quasi de forma exclusiva materials naturals com bambú, llana, coco, mango, cotó i cànem. L’ús de materials reciclats i reutilitzats, així com l’eficiència energètica són conceptes clau a l’hora de seleccionar nous productes per a la venda. ",,http://www.homeonearth.com,https://i.pinimg.com/564x/71/d1/5b/71d15bfec596e1b7866ae3bc12e381d3.jpg,"[41.381467, 2.1742277]","Carrer de la Boqueria, 14",Ciutat Vella,Barri Gòtic,08001,beverages,"['Cosmetics', 'Herbalist', 'Second hand']",,,"{'10534': 3549.31, '6669': 1756.07, '11758': 2591.02}"
112,628290eba85a7a5a0184d1bd,Merceria Santa Ana. Detall S.A,"Merceria amb més de 80 anys d’experiència en venda de botons, gomes i altres a granel, cremelleres i cintes per metre, roba a mitja o de cotó orgànic i tot allò que es pugui necessitar per arreglar roba o fer-ne de nova. ",,http://www.merceriasantaana.com/,https://i.pinimg.com/564x/83/3b/9a/833b9a1f93b05d381bc442a45fca6197.jpg,"[41.387282, 2.1729339]","Carrer de les Moles, 22",Ciutat Vella,Barri Gòtic,08002,alimentation,"['Cosmetics', 'Accessible', 'Second hand']",,,"{'10534': 3217.03, '6669': 1608.99, '11758': 2069.62}"
113,628290eba85a7a5a0184d1be,Visual Poetry Barcelona - El Born,"Dissenys de poesia visual pensats i fabricats a Barcelona amb teixits de cotó orgànic certificat en forma de samarretes, vestits, bosses i altres productes per a tota la família. ",,https://visualpoetrybarcelona.com/,https://i.pinimg.com/564x/07/d2/8f/07d28f2f30af7ee6ec671163498d5600.jpg,"[41.3847836, 2.1830598]","Carrer del Rec, 40",Ciutat Vella,"Sant Pere, Santa Caterina i la Ribera",08001,fruits & vegetables,"['Accessible', 'Second hand', 'Bar']",,,"{'10534': 2777.45, '6669': 2440.03, '11758': 2921.84}"
114,628290eba85a7a5a0184d1bf,Molsa Ecovita,"Supermercat ecològic on podrem trobar alimentació, cosmètica bio i natural, productes a granel i un molt bon assessorament personalitzat. ",,http://molsa.bio,https://i.pinimg.com/564x/25/ae/91/25ae91b15d98490d89536c69a617a237.jpg,"[41.379528, 2.1296736]","Avinguda de Madrid, 128",Sants - Montjuïc,Sants,08001,alimentation,"['Local products', 'Green space', 'Herbalist']",,,"{'6681': 1584.91, '6669': 2115.84, '11758': 2911.69, '10532': 1500.44}"
115,628290eba85a7a5a0184d1c0,Olimar,"Botiga de productes de proximitat especialitzats en xocolates, vins, olis d'oliva i cosmètics, entre altres. ",,,https://i.pinimg.com/564x/10/9c/0d/109c0d7130543076a878679abc0abe9d.jpg,"[41.387907, 2.1763229]","Carrer de Sant Pere Més Alt, 24",Ciutat Vella,"Sant Pere, Santa Caterina i la Ribera",08003,pharmacy,"['Allows pets', 'Restaurant', 'Bakery']",,,"{'10534': 2947.48, '6669': 1898.73, '11758': 2261.17}"
116,628290eba85a7a5a0184d1c1,Rollitoasí,Botiga de roba i complements coloristes la majoria fets a Barcelona i rodalies de forma sostenible. Tots els productes que ofereixen provenen de petits tallers que segueixen els principis del comerç just. ,,https://rollitoasi.com,https://cdn.pixabay.com/photo/2016/03/02/20/13/grocery-1232944_1280.jpg,"[41.4006774, 2.1565934]","Travessera de Gràcia, 141",Gràcia,Vila de Gràcia,08001,alimentation,"['Local products', 'Herbalist', 'Restaurant']",,,"{'10533': 2914.29, '6669': 1721.04, '11758': 343.33, '10532': 3755.39}"
117,628290eba85a7a5a0184d1c2,Vegere. Bellesa vegana,"A Vegere aposten per un concepte de bellesa diferent, utilitzant productes de qualitat, responsables amb la vida, el més orgànics possibles i amb el distintiu ""Cruelty free"", és a dir, que no estàn relacionats amb l'explotació animal. Només treballen amb marques que garanteixin que són 100% veganes, amb princips actius ecològics d'extractes vegetals, i tots els productes estan lliures d'ingredients sintètics, parabens, derivats del petroli, pesticides, OMG, silicones, ftalats i bisfenol-A. Ara també han incorporat la venta de henna natural a granel, i és que a Vegere no paren de renovar-se.<br />
 ",,http://vegere.es/,https://i.pinimg.com/564x/dd/6f/8e/dd6f8eeffb20cefbccad7d60f831771b.jpg,"[41.4024748, 2.1587808]","Carrer de Ramón y Cajal, 32",Gràcia,Vila de Gràcia,08012,non-alimentation,"['Recycled material', 'Fruits & vegetables', 'Restaurant']",,,"{'10533': 2774.69, '10534': 3818.27, '6669': 1949.69, '11758': 612.15}"
118,628290eba85a7a5a0184d1c3,El Celler de la Ribera,"Bodega on trobar cervesa artesanal, vins i altres licors a granel, a més de vins ecològics i de proximitat embotellats i menjar gourmet. ",,https://www.elcellerdelaribera.com,https://i.pinimg.com/564x/10/9c/0d/109c0d7130543076a878679abc0abe9d.jpg,"[41.4006061, 2.1537999]","Carrer del Cigne, 12",Gràcia,Vila de Gràcia,08012,herbalist,"['Cosmetics', 'Recycled material', 'Green space']",,,"{'10533': 2873.68, '6669': 1697.52, '11758': 210.04, '10532': 3538.77}"
119,628290eba85a7a5a0184d1c4,Solo nuts,"Tot tipus de productes a granel com fruit secs, fruita deshidratada sense sucre, cereals, llavors, espècies, bolets secs i en pols, herbes... T'esperem! ",,http://solonuts.es/,https://i.pinimg.com/564x/a8/0a/07/a80a079da685d1f7b99c21146b6e674d.jpg,"[41.4050064, 2.1709831]","Carrer de Còrsega, 512",Gràcia,Camp d'en Grassot i Gràcia Nova,08025,alimentation,"['Green space', 'Second hand', 'Allows pets']",,,"{'10533': 3027.64, '10534': 2800.1, '6669': 2613.67, '11758': 1624.63}"
120,628290eba85a7a5a0184d1c5,Llegums Cardona,"Comerç especialitzat en venda de llegums cuits i crus, fruits secs, espècies, herbes aromàtiques a l'engròs. ",,,https://i.pinimg.com/564x/10/9c/0d/109c0d7130543076a878679abc0abe9d.jpg,"[41.4018955, 2.164653]","Carrer de la Indústria, 4",Gràcia,Camp d'en Grassot i Gràcia Nova,08037,restaurant,"['Bar', 'Restaurant', 'Fruits & vegetables']",,,"{'10533': 3026.9, '10534': 3332.64, '6669': 2050.65, '11758': 1003.07}"
121,628290eba85a7a5a0184d1c6,Re-Read,Compra i venda de llibres de segona mà,,https://www.re-read.com/,https://i.pinimg.com/564x/25/ae/91/25ae91b15d98490d89536c69a617a237.jpg,"[41.4021955, 2.1663154]","Passeig de Sant Joan, 152",Gràcia,Camp d'en Grassot i Gràcia Nova,08037,supermarket,"['Recycled material', 'Cosmetics', 'Beverages']",,,"{'10533': 3064.02, '10534': 3192.16, '6669': 2144.5, '11758': 1144.77}"
122,628290eba85a7a5a0184d1c7,Carnisseria Lack,"Petit comerç familiar dedicat a tots tipus de carns de qualitat, derivats i complements tot de terres catalanes. ",,,https://i.pinimg.com/564x/f7/cc/f3/f7ccf366101db1b54067ecca8418bfe6.jpg,"[41.4032407, 2.1666081]","Carrer de Roger de Flor, 259",Gràcia,Camp d'en Grassot i Gràcia Nova,08013,others,"['Second hand', 'For children', 'Local products']",,,"{'10533': 2976.5, '10534': 3163.02, '6669': 2258.21, '11758': 1210.98}"
123,628290eba85a7a5a0184d1c8,Aktual estilistes,"Saló unisex que treballa amb productes naturals amb certificat ecològic (xampús, tractaments sense sulfats ni parabens, tints de quinoa, etc). ",,,https://i.pinimg.com/564x/83/3b/9a/833b9a1f93b05d381bc442a45fca6197.jpg,"[41.4026378, 2.1633694]","Carrer de Bailèn, 224",Gràcia,Camp d'en Grassot i Gràcia Nova,08037,supermarket,"['Beverages', 'Allows pets', 'Plastic free']",,,"{'10533': 2904.99, '10534': 3435.14, '6669': 2081.79, '11758': 938.64}"
124,628290eba85a7a5a0184d1c9,Forn Europa,"Forn especialitzat en pans especials, espelta i baix contingut en gluten. Tots els pans i les pastes són fets a l'obrador propi amb farines de Girona i alguna d'elles ecològica. ",,http://www.forneuropa.es/,https://i.pinimg.com/564x/dd/6f/8e/dd6f8eeffb20cefbccad7d60f831771b.jpg,"[41.4065765, 2.1646074]","Carrer del Pare Laínez, 13",Gràcia,Camp d'en Grassot i Gràcia Nova,08001,supermarket,"['Green space', 'Pharmacy', 'Allows pets']",,,"{'10533': 2573.49, '10534': 3342.48, '6669': 2526.97, '11758': 1278.59}"
125,628290eba85a7a5a0184d1ca,Aquí y ahora,"Perruqueria on s'ofereixen productes biològics d'elaboració pròpia, a més d'un espai on relaxar-se i gaudir mentre ens posen bonics. ",,,https://i.pinimg.com/564x/71/d1/5b/71d15bfec596e1b7866ae3bc12e381d3.jpg,"[41.4060954, 2.1657935]","Travessera de Gràcia, 264",Gràcia,Camp d'en Grassot i Gràcia Nova,08001,restaurant,"['Recycled material', 'For children', 'Cosmetics']",,,"{'10533': 2672.38, '10534': 3239.47, '6669': 2514.67, '11758': 1318.88}"
126,628290eba85a7a5a0184d1cb,Ferreteria Collado,"Material de ferreteria, electricitat, fontaneria, pintura ecològica.. Hi podem trobar cargols a l'engròs, elements reutilitzables i que permeten reduir residus, paelles ecològiques, entre altres. ",,,https://i.pinimg.com/564x/a8/0a/07/a80a079da685d1f7b99c21146b6e674d.jpg,"[41.4087634, 2.1600957]","Carrer de l'Escorial, 112",Gràcia,Camp d'en Grassot i Gràcia Nova,08001,fruits & vegetables,"['Second hand', 'Accessible', 'Recycled material']",,,"{'10533': 2174.0, '10534': 3744.81, '6669': 2656.62, '11758': 1246.89}"
127,628290eba85a7a5a0184d1cc,Molsa l'Estel,"Rebost de salut on podrem trobar alimentació ecològica de proximitat, cosmètica ecològica.. ",,http://bioconsum.com/,https://i.pinimg.com/564x/07/d2/8f/07d28f2f30af7ee6ec671163498d5600.jpg,"[41.4081285, 2.1635252]","Carrer de Pi i Margall, 39",Gràcia,Camp d'en Grassot i Gràcia Nova,08001,supermarket,"['Plastic free', 'Herbalist', 'Fruits & vegetables']",,,"{'10533': 2379.53, '10534': 3451.7, '6669': 2660.09, '11758': 1343.27}"
128,628290eba85a7a5a0184d1cd,Vinalium (Pi i Maragall),"Vins, caves i licors amb oferta ecològica, de proximitat i a granel",,http://www.vinalium.es/,https://i.pinimg.com/564x/ce/84/41/ce844160a3d2dd51382d52e955e05a50.jpg,"[41.4079012, 2.1633616]","Carrer de Pi i Margall, 33",Gràcia,Camp d'en Grassot i Gràcia Nova,08001,bar,"['Supermarket', 'Plastic free', 'Fruits & vegetables']",,,"{'10533': 2393.44, '10534': 3461.87, '6669': 2631.87, '11758': 1315.06}"
129,628290eba85a7a5a0184d1ce,Aúpali,"Botiga de criança respectuosa especialitzada en 0-6 anys on podem trobar joguines de fusta, portanadons orgànics, bolquers de roba, copes menstruals i altres productes.",,http://www.aupaliportabebes.com/,https://cdn.pixabay.com/photo/2016/03/02/20/13/grocery-1232944_1280.jpg,"[41.3962943, 2.1255244]","Carrer de la Tradició, 5",Sarrià - Sant Gervasi,Sarrià,08001,others,"['Local products', 'For children', 'Plastic free']",,,"{'10533': 3805.28, '6681': 3000.04, '6669': 2656.33, '11758': 2339.82, '10532': 1307.02}"
130,628290eba85a7a5a0184d1cf,Biovet,"Espai que uneix veterinària convencional amb els tractaments naturals i complementaris per a animals<br />
<br />
Biovet és un programa d'atenció familiar a animals domèstics que fusiona les virtuts de la medicina convencional amb les teràpies naturals i complementàries, en casos on la alopatía no troba la sanació.<br />
<br />
Entre els seus serveis compta amb una botiga on es poden trobar productes, medicines i aliments lliures de químics prioritzant els productes locals i de proximitat. Ofereixen una àmplia gamma de Menús Naturals frescos i nutricionalment equilibrats per a gossos i gats.",,https://biovet.es/,https://i.pinimg.com/564x/01/d6/73/01d6739c176f5ee7f0192c4a3914d8d3.jpg,"[41.396537, 2.1215473]","Carrer d'Osi, 52",Sarrià - Sant Gervasi,Sarrià,08034,bakery,"['Plastic free', 'Bar', 'Vegan food']",,,"{'10533': 3956.64, '6681': 2946.47, '6669': 2966.31, '11758': 2666.96, '10532': 1139.17}"
131,628290eba85a7a5a0184d1d0,Corkland - Bosses de suro i regals,"A Corkland hem triat el SURO (únicament el d'alta qualitat) com un nou concepte de moda sostenible per poder portar alguna cosa diferent, original, exclusiva, 100% ecològica i feta artesanalment. Una bossa de suro, bijuteria de suro, complements de suro o algun regal de suro que es diferenciï de tota la resta. Us sorprendrà poder veure a la nostra botiga la gran quantitat de complements de moda que es poden arribar a realitzar amb teixit de suro, que al contrari del que pugui semblar, és suau, impermeable, molt lleuger de portar i es pot netejar fàcilment amb aigua i sabó neutre. També us explicarem com des de l'escorça de l'arbre després de tot un procés de gran elaboració, finalment acaba sent un article de moda sostenible, respectant l'arbre i evitant la seva tala, així com les diferències entre el suro d'alta i baixa qualitat. A Corkland volem marcar tendència amb al natural i innovador, totalment diferent al que ja coneixem, per això hem escollit el suro perquè reuneix totes les condicions necessàries per a això. I vosaltres...us animeu amb el suro? Veniu a conèixer el nostre petit país del suro, segur que us encantarà!!!<br />
<br />
Aquesta organització està adherida al <a href=""http://turismesostenible.barcelona/"" target=""_blank"">compromís</a> per a la Sostenibilitat Turística Barcelona Biosphere.<br />
 Editar",,http://www.corkland.es,https://i.pinimg.com/564x/8c/d4/b7/8cd4b7791b6db9189a2f9ac9bd6e81a0.jpg,"[41.40365231, 2.17782283]","Carrer València, 465 ",Eixample,Sagrada Família,08013,beverages,"['Fruits & vegetables', 'Beverages', 'Cosmetics']",,,"{'10533': 3522.4, '10534': 2227.01, '6669': 2855.6, '11758': 2110.11}"
132,628290eba85a7a5a0184d1d1,Carnisseria Santa Gemma,"Carnisseria i alimentació de proximitat (Vedella de Girona, Pollastre de l'Empordà. Productes elaborats locals, embotits, pasta de Sant Hilari. Algun elaborat de fabricació pròpia) i algun producte ecològic (Ous, Alguns productes de pasta, Cremes de verdures. Pollastre eco per encàrrec).",,,https://i.pinimg.com/564x/ce/84/41/ce844160a3d2dd51382d52e955e05a50.jpg,"[41.38996992, 2.12564377]","Manila, 51",Les Corts,Pedralbes,08034,non-alimentation,"['Bar', 'Pharmacy', 'Green space']",,,"{'6681': 2340.67, '6669': 2406.47, '11758': 2511.29, '10532': 917.98}"
133,628290eba85a7a5a0184d1d2,Conillas Garden Center,"En aquest centre de jardineria donen prioritat als productors de plantes locals; així com en testos de terracota.<br />
Tenen oferta de fitosanitaris ecològics. També venen llenya i carbó vegetal ecològic.<br />
Ofereixen testos de plàstic reciclat i cistelleria feta a partir de cintes d'embalar. Potencien com a substitut del test petit el test fet a partir de fibra de coco.<br />
Tenen productes per fomentar la biodiversitat: per atreure papallones, capses d'ocells, hotels per a insectes.<br />
També el necessari per a muntar murs verticals i piscines ecològiques.<br />
<br />
Fan venda de terra per a jardineria a granel.<br />
L'embalatge és a base de bosses de paper, capses de cartró, bosses compostables, paper de seda.<br />
<br />
Les etiquetes i les targetes són fetes de paper reciclat.<br />
<br />
Fan tallers d'hort urbà, de sabons naturals, de coquedames (en test de coco), per a fomentar el compostatge, d'hort escolar.",,http://www.conillas.com,https://i.pinimg.com/564x/07/d2/8f/07d28f2f30af7ee6ec671163498d5600.jpg,"[41.3900195, 2.1099334]","Avda. d'Esplugues, 74-76",Les Corts,Pedralbes,08001,alimentation,"['Green space', 'Accessible', 'Cosmetics']",,,"{'6681': 2210.61, '6669': 3698.17, '11758': 3752.12, '10532': 518.39}"
134,628290eba85a7a5a0184d1d3,La Casa de los Vinos. Bodega Artós,"Venda de vins, licors, olis i vinagres.<br />
Part de l'oferta de proximitat, una part amb certificació ecològica. Alguns vins biodinàmics.<br />
Venda de vi i licors a granel.",,https://www.bodegaartos.com/,https://i.pinimg.com/564x/b7/ed/e3/b7ede31ce52cca67b321f8e7b615403e.jpg,"[41.3956246, 2.1253279]","Pl. Artós, 11",Sarrià - Sant Gervasi,Sarrià,08001,others,"['Accessible', 'Allows pets', 'Vegan food']",,,"{'10533': 3878.23, '6681': 2924.05, '6669': 2637.79, '11758': 2365.87, '10532': 1240.92}"
135,628290eba85a7a5a0184d1d4,Ferreteria Cantàbria,"Ferreteria que ven ferratges a granel (cargols,...), així com material de construcció a pes i fusta al tall.<br />
Ven carretons per la compra, reductors d'aigua per aixetes, bombetes de led i de baix consum, carregadors de bateries, gerres ""Brita"" i filtres, bosses porta-aliments.",,,https://i.pinimg.com/564x/8c/d4/b7/8cd4b7791b6db9189a2f9ac9bd6e81a0.jpg,"[41.4209414, 2.1994289]","Cantàbria, 43",Sant Martí,Sant Martí de Provençals,08020,herbalist,"['For children', 'Bakery', 'Recycled material']",,,"{'10534': 1944.12, '6677': 1972.21}"
136,628290eba85a7a5a0184d1d5,C.Art,"Botiga-taller de restauració i reciclatge, fent servir per la restauració productes ecològics. Venda de productes restaurats.",,http://www.c-art-restaura.com,https://cdn.pixabay.com/photo/2016/03/02/20/13/grocery-1232944_1280.jpg,"[41.4172708, 2.1939693]","Menorca, 8-10",Sant Martí,Sant Martí de Provençals,08001,herbalist,"['Accessible', 'Bakery', 'Second hand']",,,"{'10533': 3956.78, '10534': 1729.64, '6677': 2533.84, '11758': 3962.36}"
137,628290eba85a7a5a0184d1d6,Tugas i Companyia,"Fruita i verdura ecològica de collita pròpia,  diversos productes ecològics i/o de proximitat. Destaquem les mongetes del ganxet que es venen a granel, els ous de Can Reinal, la mel Llàgrimes de Ra, o l’oli de Mas del Ros, tot ecològic. Altres productes orgànics que hi podeu comprar són les patates xips, sucs, crema de verdures i vins i caves del Penedès. També tenen llavors ecològiques i venen bitsy bags. Actualment es troba al mercat provisional de Sant Andreu, al carrer de Sant adrià num. 20, parada 153.",,http://www.tugasicompanyia.cat,https://cdn.pixabay.com/photo/2016/03/02/20/13/grocery-1232944_1280.jpg,"[41.4336881, 2.1916304]","Carrer de Sant Adrià, 20",Sant Andreu,Sant Andreu,08030,pharmacy,"['Beverages', 'Second hand', 'Plastic free']",,,"{'10533': 3735.2, '10534': 3484.49, '6677': 2705.41}"
138,628290eba85a7a5a0184d1d7,Cansaladeria Puig,"Carns de poltre, vedella i xai ecològiques, formatge i ous ecològics. Carn de la Seu d'Urgell i Osona. Algun formatge de proximitat. Embotit cuït i sobrassada d'obrador propi. Redueixen l'utilització de plàstic amb embolcalls de paper parafinat.",,http://www.cansaladeriapuig.com/es/index.html,https://i.pinimg.com/564x/71/d1/5b/71d15bfec596e1b7866ae3bc12e381d3.jpg,"[41.431953, 2.1892362]","Gran de Sant Andreu, 147",Sant Andreu,Sant Andreu,08392,non-alimentation,"['Accessible', 'Cosmetics', 'Plastic free']",,,"{'10533': 3500.04, '10534': 3371.8, '6677': 2840.64}"
139,628290eba85a7a5a0184d1d8,Fruiteca,"Fruiteria amb verdures i fruites de qualitat, les més fresques i tot de proximitat, del negoci familiar de Tordera.<br />
Tenen bosses de paper reciclat, sucs, mermelades...etc.",,https://www.fruiteca.cat,https://i.pinimg.com/564x/52/76/a7/5276a7255d2cc0514b0af1dd8b55efc7.jpg,"[41.3922554, 2.154399]","Aribau, 156",Eixample,L'Antiga Esquerra de l'Eixample,08001,others,"['Herbalist', 'Accessible', 'Bakery']",,,"{'10533': 3798.89, '6669': 770.46, '11758': 726.33, '10532': 3316.91}"
140,628290eba85a7a5a0184d1d9,Farmàcia Ana Maria Sans Alvarez-Montesinos,"Farmàcia que ofereix productes ecòlogics com compreses de cotó, copa menstrual...etc",,,https://i.pinimg.com/564x/dd/6f/8e/dd6f8eeffb20cefbccad7d60f831771b.jpg,"[41.391826, 2.1477486]","Carrer de Villarroel, 251",Eixample,L'Antiga Esquerra de l'Eixample,08036,alimentation,"['Recycled material', 'Green space', 'Restaurant']",,,"{'10533': 3808.93, '6681': 3619.4, '6669': 881.39, '11758': 901.46, '10532': 2761.95}"
141,628290eba85a7a5a0184d1da,Farmàcia Santiago Rosón,"Farmàcia situada al centre de Barcelona on es poden trobar productes ecològics d'higiene íntima, dental, cosmètica...",,,https://i.pinimg.com/564x/07/d2/8f/07d28f2f30af7ee6ec671163498d5600.jpg,"[41.3917894, 2.1680212]","Carrer de Pau Claris, 111",Eixample,Dreta de l'Eixample,08009,pharmacy,"['Recycled material', 'For children', 'Second hand']",,,"{'10534': 3328.25, '6669': 1384.72, '11758': 1445.11}"
142,628290eba85a7a5a0184d1db,Queviures J.Serra,"Botiga de queviures amb venda de productes ecològics, embotits a granel i vins i melmelades de proximitat, entre altres.",,,https://i.pinimg.com/564x/25/ae/91/25ae91b15d98490d89536c69a617a237.jpg,"[41.3914408, 2.1753379]","Carrer de Girona, 13",Eixample,Dreta de l'Eixample,08001,cosmetics,"['Beverages', 'Vegan food', 'Recycled material']",,,"{'10534': 2799.86, '6669': 1918.85, '11758': 2003.13}"
143,628290eba85a7a5a0184d1dc,Farmàcia Galup,"Farmàcia amb molts anys d'experiència a la ciutat de Barcelona amb productes ecològics i de proximitat, com per exemple linea de cosmètics, higiene íntima...",,www.farmaciagalup.com,https://i.pinimg.com/564x/8c/d4/b7/8cd4b7791b6db9189a2f9ac9bd6e81a0.jpg,"[41.3896851, 2.1706781]","Carrer de Pau Claris, 83",Eixample,Dreta de l'Eixample,08010,beverages,"['Bakery', 'Bar', 'For children']",,,"{'10534': 3234.35, '6669': 1486.9, '11758': 1759.34}"
144,628290eba85a7a5a0184d1dd,Farmàcia Veciana,"Farmàcia amb secció de productes ecològics de cotó orgànic, copa menstrual, etc i altres de proximitat. A més, utilitzen bosses de paper compostable.",,,https://i.pinimg.com/564x/dd/6f/8e/dd6f8eeffb20cefbccad7d60f831771b.jpg,"[41.3920068, 2.1743933]","Carrer de Casp, 68",Eixample,Dreta de l'Eixample,08010,cosmetics,"['Bakery', 'Fruits & vegetables', 'Beverages']",,,"{'10534': 2838.81, '6669': 1869.39, '11758': 1905.75}"
145,628290eba85a7a5a0184d1de,Floristeria Noves Flors,"Floristeria on trobar flors de proximitat, concretament del Maresme i dels voltants de Barcelona. Utilitzen bosses de paper reciclat.",,,https://i.pinimg.com/564x/dd/a3/6e/dda36e4305073dba20a161b41987a5b3.jpg,"[41.3925711, 2.1491051]","Carrer de Casanova, 189",Eixample,L'Antiga Esquerra de l'Eixample,08001,bakery,"['Local products', 'Bakery', 'Restaurant']",,,"{'10533': 3727.18, '6681': 3759.19, '6669': 895.19, '11758': 773.6, '10532': 2888.49}"
146,628290eba85a7a5a0184d1df,Alimentació Queviures La Torra,"Botiga d'alimentació amb venda de productes de proxmitat com fruites i verdures procedents del Maresme, entre altres.",,,https://i.pinimg.com/564x/01/d6/73/01d6739c176f5ee7f0192c4a3914d8d3.jpg,"[41.3909842, 2.1516325]",Carrer de Casanova 170,Eixample,L'Antiga Esquerra de l'Eixample,08036,pharmacy,"['Herbalist', 'Local products', 'Plastic free']",,,"{'10533': 3914.27, '6681': 3813.43, '6669': 653.65, '11758': 875.04, '10532': 3068.24}"
147,628290eba85a7a5a0184d1e0,Farmàcia Clapès Billoch,Farmàcia que ofereix productes ecològics com compreses de cotó orgànic i alimentació bio.,,http://www.farmaciaclapesbilloch.com/,https://i.pinimg.com/564x/25/ae/91/25ae91b15d98490d89536c69a617a237.jpg,"[41.3930496, 2.1552486]","Carrer d'Enric Granados, 117",Eixample,L'Antiga Esquerra de l'Eixample,08008,alimentation,"['Pharmacy', 'Green space', 'Fruits & vegetables']",,,"{'10533': 3722.34, '6669': 865.49, '11758': 651.88, '10532': 3401.82}"
148,628290eba85a7a5a0184d1e1,Perruqueria La Bio Pelu,Perruqueria amb venda de productes i tractaments ecològics per al cabell. Fan coloració vegetal amb aigua osmotizada i comptem amb filtres de carboni en el saló. Ara han implementat una linea de cosmetica de Catalunya.,,https://www.labiopelu.com,https://i.pinimg.com/564x/71/d1/5b/71d15bfec596e1b7866ae3bc12e381d3.jpg,"[41.3874597, 2.1521803]","Carrer de Provença, 146",Eixample,L'Antiga Esquerra de l'Eixample,08001,supermarket,"['Vegan food', 'Fruits & vegetables', 'Herbalist']",,,"{'6681': 3632.21, '6669': 272.6, '11758': 1258.67, '10532': 3089.27}"
149,628290eba85a7a5a0184d1e2,Ferreteria Suministros Carles,"Ferreteria que ofrece pilas recargables, bock and roll, leds...",,,https://i.pinimg.com/564x/10/9c/0d/109c0d7130543076a878679abc0abe9d.jpg,"[41.3850073, 2.1557107]","Carrer d'Aragó, 132",Eixample,L'Antiga Esquerra de l'Eixample,08001,beverages,"['Herbalist', 'Restaurant', 'Pharmacy']",,,"{'6681': 3762.31, '6669': 161.85, '11758': 1539.61, '10532': 3395.06}"
150,628290eba85a7a5a0184d1e3,Floristeria Magda Flor S.L.,Floristeria que ven tot tipus de flors dels voltants de Barcelona.,,www.magdaflor.com,https://i.pinimg.com/564x/ce/84/41/ce844160a3d2dd51382d52e955e05a50.jpg,"[41.381543, 2.160117]","Carrer de Sepúlveda, 131",Eixample,Sant Antoni,08001,others,"['Local products', 'Herbalist', 'Fruits & vegetables']",,,"{'6681': 3961.81, '6669': 673.86, '11758': 1993.3, '10532': 3809.31}"
151,628290eba85a7a5a0184d1e4,Jo també sóc al·lèrgic,"Botiga amb venda de tot tipus de producte ecològic, sobretot amb productes especials per persones amb al·lèrgies i intoleràncies alimentàries.",,www.jotambesocallergic.cat,https://i.pinimg.com/564x/ce/84/41/ce844160a3d2dd51382d52e955e05a50.jpg,"[41.376394, 2.1529193]","Carrer de Vilamarí, 26",Eixample,Sant Antoni,08001,alimentation,"['Bakery', 'For children', 'Recycled material']",,,"{'6681': 3233.41, '6669': 997.6, '11758': 2485.4, '10532': 3383.96}"
152,628290eba85a7a5a0184d1e5,Ferreteria E35,"Venda a granel de ferratges (cargols,...). Productes per ajudar als clients a fer una compra més sostenible: bombetes led,  gerra d'aigua filtrada ""Brita"" i filtres,...",,,https://i.pinimg.com/564x/52/76/a7/5276a7255d2cc0514b0af1dd8b55efc7.jpg,"[41.3770321, 2.15371]","Carrer d'Entença, 35",Eixample,Sant Antoni,08001,bar,"['Second hand', 'Green space', 'Herbalist']",,,"{'6681': 3312.86, '6669': 923.84, '11758': 2414.3, '10532': 3420.7}"
153,628290eba85a7a5a0184d1e6,La Dietètica,"Productes d'alimentació ecològica, complements alimentaris i cosmètica certificada bio.",,https://www.ladieteticabarcelona.com,https://i.pinimg.com/564x/71/d1/5b/71d15bfec596e1b7866ae3bc12e381d3.jpg,"[41.3872193, 2.1534101]","Carrer de Mallorca, 127",Eixample,L'Antiga Esquerra de l'Eixample,08001,pharmacy,"['Herbalist', 'Local products', 'Cosmetics']",,,"{'6681': 3706.81, '6669': 211.78, '11758': 1281.38, '10532': 3192.01}"
154,628290eba85a7a5a0184d1e7,Gra de Gràcia Cigne,"Botiga de venda de producte a granel de proximitat i ecològic. Ofereixen envasos biodegradables, bosses de paper o envasos de vidre i bosses de roba reutilitzables. Més l’opció de portar el propi envàs i tenir descompte. També tenen begudes i productes aptes per intoleràncies alimenticies. ",,https://gradegracia.cat/,https://i.pinimg.com/564x/10/9c/0d/109c0d7130543076a878679abc0abe9d.jpg,"[41.4006884, 2.1539071]","Carrer del Cigne, 10",Gràcia,Vila de Gràcia,08012,herbalist,"['Local products', 'Fruits & vegetables', 'Green space']",,,"{'10533': 2866.18, '6669': 1706.68, '11758': 220.66, '10532': 3550.69}"
155,628290eba85a7a5a0184d1e8,El CamBio Lógico,La primera botiga Zero Waste en Barcelona. Vine i descobreix com pots viure sense plàstic i de manera més sostenible.,,https://elcambiologico.com/,https://i.pinimg.com/564x/83/3b/9a/833b9a1f93b05d381bc442a45fca6197.jpg,"[41.3995557, 2.1542156]","Carrer de Sant Cristòfol, 15",Gràcia,Vila de Gràcia,08012,alimentation,"['Bakery', 'Green space', 'Local products']",,,"{'10533': 2994.69, '6669': 1581.06, '11758': 113.86, '10532': 3524.3}"
156,628290eba85a7a5a0184d1e9,Skunkfunk,,,https://www.skunkfunk.com/es/,https://i.pinimg.com/564x/ce/84/41/ce844160a3d2dd51382d52e955e05a50.jpg,"[41.403477, 2.157476]","Carrer de Verdi, 14",Gràcia,Vila de Gràcia,08001,bar,"['Cosmetics', 'Second hand', 'Plastic free']",,,"{'10533': 2634.83, '10534': 3924.13, '6669': 2039.65, '11758': 627.31, '10532': 3953.1}"
157,628290eba85a7a5a0184d1ea,VELVET BCN,"Som VELVET BCN, una botiga de productes sostenibles i de comerç just especialitzada en Moda Ètica i Sostenible i Cosmètica Natural.<br />
<br />
Respecte a la moda sostenible, escollim els nostres proveïdors pels seus productes fets amb materials orgànics, reciclats o fets amb materials que tenen un impacte positiu sobre el medi ambient. Treballem amb marques locals i també algunes d'internacionals. El fet de col·laborar amb marques de proximitat ens permet no sols promocionar el teixit del territori, reduir el nostre impacte mediambiental i alhora tenir un millor coneixement de les garanties laborals en la producció.<br />
<br />
Per tal de garantir una fabricació ètica en les marques internacionals el que fem és posar-hi el focus en els certificats que tenen tant els seus teixits i matèries primeres com en els seus processos i condicions laborals.<br />
<br />
L'actual situació de crisi sanitària ens ha dut a potenciar encara més la nostra presència com a botiga online. Aquest ha sigut l'impuls definitiu que necessitàvem per ampliar el nostre catàleg online. Per tal de garantir el major impacte positiu en els nostres enviaments, treballem amb Koiki, que creiem que ara per ara és la millor opció al mercat tan social com ecològica.",,https://www.velvetbcn.com/es/,https://i.pinimg.com/564x/07/d2/8f/07d28f2f30af7ee6ec671163498d5600.jpg,"[41.4043148, 2.1565934]","Carrer de Verdi, 42",Gràcia,Vila de Gràcia,08012,alimentation,"['Vegan food', 'Allows pets', 'Plastic free']",,,"{'10533': 2524.23, '10534': 3997.75, '6669': 2122.53, '11758': 674.87, '10532': 3930.95}"
158,628290eba85a7a5a0184d1eb,Casa Cerdanya,Carnisseria ecològica amb ramaderia pròpia a preus molt competitius. ,,http://www.casacerdanya.com/,https://i.pinimg.com/564x/dd/6f/8e/dd6f8eeffb20cefbccad7d60f831771b.jpg,"[41.4030798, 2.1524452]","Carrer Gran de Gràcia, 188",Gràcia,Vila de Gràcia,08012,bar,"['Fruits & vegetables', 'Pharmacy', 'Beverages']",,,"{'10533': 2584.33, '6669': 1975.92, '11758': 488.56, '10532': 3561.58}"
159,628290eba85a7a5a0184d1ec,VeGala,"La primera tienda de cosmética vegana de Barcelona, donde podrás encontrar productos selecionados con mucho amor, tanto en maquillaje como de higiene personal, con dos denominadores comunes: ser veganos y de calidad. <br />
<br />
Además de vender cosmética ofrecemos citas de maquillaje, cursos de automaquillaje individuales o en grupo, y realizamos talleres donde se fomentará un estilo de vida saludable, sostenible y natural. <br />
<br />
Un espacio innovador y fresco, que quiere acercar una cosmètica ""diferente"" a todo el mundo. ",,https://www.vegala.es/,https://i.pinimg.com/564x/83/3b/9a/833b9a1f93b05d381bc442a45fca6197.jpg,"[41.3999302, 2.1541135]","Carrer de Santa Eugènia, 16",Gràcia,Vila de Gràcia,08012,alimentation,"['Pharmacy', 'Recycled material', 'Local products']",,,"{'10533': 2952.2, '6669': 1622.54, '11758': 145.32, '10532': 3532.52}"
160,628290eba85a7a5a0184d1ed,Sunsais,"Trust what you wear” és l'eix que mou la nostra filosofia per fer créixer SUNSAIS. Neix de la idea de vestir amb peces plenes de valors; com l'ètica i el respecte. Amb la premissa que estiguin fetes per dissenyadors sostenibles que, al seu torn, comparteixin amb nosaltres boniques històries sobre els seus projectes i productes.",,http://sunsais.com/,https://i.pinimg.com/564x/dd/6f/8e/dd6f8eeffb20cefbccad7d60f831771b.jpg,"[41.4026026, 2.1586688]","Carrer de Ramón y Cajal, 34",Gràcia,Vila de Gràcia,08012,supermarket,"['For children', 'Bakery', 'Beverages']",,,"{'10533': 2758.22, '10534': 3827.05, '6669': 1961.63, '11758': 615.14}"
161,628290eba85a7a5a0184d1ee,Alone perruqueria,"Productes orgànics, on la persona és el més important i l'atenció és atenta i especial. Orgànic en producte, tracte i preu. A més, es poden comprar productes ecològics i a granel. ",,,https://i.pinimg.com/564x/dd/6f/8e/dd6f8eeffb20cefbccad7d60f831771b.jpg,"[41.3973845, 2.1827102]","Carrer de Ribes, 30-32",Eixample,Fort Pienc,08013,restaurant,"['Accessible', 'Bar', 'Second hand']",,,"{'10534': 1957.45, '6669': 2757.0, '11758': 2450.69}"
162,628290eba85a7a5a0184d1ef,Alone perruqueria,"Slow perruqueria. Productes orgànics, on la persona és el més important i l'atenció és atenta i especial. Orgànic en producte, tracte i preu. A més, es poden comprar productes a ecològics i a granel. ",,,https://i.pinimg.com/564x/71/d1/5b/71d15bfec596e1b7866ae3bc12e381d3.jpg,"[41.3731453, 2.168001]","Carrer Nou de la Rambla, 138",Sants - Montjuïc,El Poble Sec,08001,pharmacy,"['Bakery', 'Restaurant', 'Beverages']",,,"{'6669': 1799.52, '11758': 3096.52}"
163,628290eba85a7a5a0184d1f0,Verduleria Aproxima't,"Fruita i verdura de proximitat i de temporada amb selecció de productes ecològics. Productes d'alimentació envasats bio, cremes i làctics de proximitat. Han introduït bosses de paper.",,,https://cdn.pixabay.com/photo/2016/03/02/20/13/grocery-1232944_1280.jpg,"[41.38114, 2.1625075]","Carrer de Floridablanca, 138",Eixample,Sant Antoni,08001,non-alimentation,"['Second hand', 'Bar', 'Supermarket']",,,"{'6669': 862.09, '11758': 2100.1}"
164,628290eba85a7a5a0184d1f1,Cerveseria Okasional Beer,Cerveses de proximitat i artesanes,,www.okasional-beer.com,https://i.pinimg.com/564x/b7/ed/e3/b7ede31ce52cca67b321f8e7b615403e.jpg,"[41.3822973, 2.162542]","Carrer de Casanova, 11",Eixample,Sant Antoni,08001,bakery,"['Beverages', 'Pharmacy', 'Allows pets']",,,"{'6669': 802.33, '11758': 1981.81, '10532': 3995.72}"
165,628290eba85a7a5a0184d1f2,Farmàcia Reverter Agüerai,"Fan fòrmules magistrals.<br />
Tenen una línia cosmètica bio pròpia.<br />
Venen higiene íntima de cotó orgànic.",,,https://i.pinimg.com/564x/ce/84/41/ce844160a3d2dd51382d52e955e05a50.jpg,"[41.3791589, 2.158196]","Carrer de Viladomat, 90",Eixample,Sant Antoni,08001,cosmetics,"['Recycled material', 'Bar', 'Second hand']",,,"{'6681': 3732.82, '6669': 778.18, '11758': 2214.33, '10532': 3708.8}"
166,628290eba85a7a5a0184d1f3,Marc Vidal Taula i Cuina,"Establiment amb venda de productes sostenibles com ampolles de plàstic reutilitzables, ""Bock & roll"", carmanyoles i paelles sense PFOA.",,,https://i.pinimg.com/564x/25/ae/91/25ae91b15d98490d89536c69a617a237.jpg,"[41.3798716, 2.162732]","Carrer de Tamarit, 162",Eixample,Sant Antoni,08001,beverages,"['Fruits & vegetables', 'Accessible', 'Bar']",,,"{'6669': 960.38, '11758': 2238.59}"
167,628290eba85a7a5a0184d1f4,El racó de la Rosa,"Productes d'alimentació ecològics envasats.<br />
Herbes a granel.<br />
Cosmètica bio.<br />
Higiene íntima de cotó orgànic. Copa menstrual.<br />
Bosses compostables.",,www.elracodelarosa.cat,https://i.pinimg.com/564x/01/d6/73/01d6739c176f5ee7f0192c4a3914d8d3.jpg,"[41.3775529, 2.1588621]","Avinguda de Mistral, 10",Eixample,Sant Antoni,08015,cosmetics,"['Accessible', 'Vegan food', 'Second hand']",,,"{'6681': 3745.18, '6669': 962.59, '11758': 2400.13, '10532': 3810.56}"
168,628290eba85a7a5a0184d1f5,Dietètica l'Arbre de Vida,"Comerç que ofereix productes d'alimentació ecològics envasats, fruita i verdura de producció ecològica de proximitat i ous i herbes medicinals a granel.",,http://www.arbredevida.cat/,https://i.pinimg.com/564x/07/d2/8f/07d28f2f30af7ee6ec671163498d5600.jpg,"[41.3824919, 2.1515215]","Carrer de Calàbria, 162",Eixample,La Nova Esquerra de l'Eixample,08015,beverages,"['Fruits & vegetables', 'Green space', 'Vegan food']",,,"{'6681': 3328.26, '6669': 370.31, '11758': 1813.72, '10532': 3084.82}"
169,628290eba85a7a5a0184d1f6,Farmàcia Dalmases,"Fòrmules magistrals, higiene íntima de cotó orgànc, copa menstrual, cosmètica natural...",,https://guia.barcelona.cat/es/detall/farmacia-dalmases_75990225321.html,https://i.pinimg.com/564x/ce/84/41/ce844160a3d2dd51382d52e955e05a50.jpg,"[41.3820974, 2.151294]","Carrer d'Aragó, 97",Eixample,La Nova Esquerra de l'Eixample,08015,bar,"['Local products', 'Accessible', 'Allows pets']",,,"{'6681': 3293.46, '6669': 417.72, '11758': 1859.11, '10532': 3074.41}"
170,628290eba85a7a5a0184d1f7,Floristeria Contxa Marquez,"Floristeria on trobar plantes d'exterior de proximitat, concretament de Vilassar, i productes ecològics pel tractament de les plantes i flors.",,https://www.contxamarquez.com,https://i.pinimg.com/564x/8c/d4/b7/8cd4b7791b6db9189a2f9ac9bd6e81a0.jpg,"[41.3844917, 2.1550392]","Carrer d'Aragó, 124",Eixample,La Nova Esquerra de l'Eixample,08001,cosmetics,"['Second hand', 'Pharmacy', 'Vegan food']",,,"{'6681': 3687.23, '6669': 138.6, '11758': 1590.67, '10532': 3344.46}"
171,628290eba85a7a5a0184d1f8,Home on Earth. Raval,"Home on Earth neix al 2001 de la mà d'una parella danesa-alemany, obren la primera de les seves botigues el 2010, la segona al 2014 i a inicis de l'any 2019 obren la tercera botiga a Barcelona. Ofereixen productes naturals i sostenibles per la llar amb un disseny nordic.<br />
<br />
Treballen conjuntament amb artesans d'arreu amb els qui han conviscut durant anys, sempre amb els mateixos i amb un tracte directe i just. Dins de la seva exquisita varietat pots trobar articles per la casa, utils de cuina, artícles de yoga, hamaques, bosses, joyeria... A més a més, treballen amb associacions socials inclusives com Estel Tapia o Barmhärzige Brüder a Austria.<br />
<br />
Home on earth utilitza quasi de forma exclusiva materials naturals com bambú, llana, coco, mango, cotó i cànem. L’ús de materials reciclats i reutilitzats, així com l’eficiència energètica són conceptes clau a l’hora de seleccionar nous productes per a la venda. ",,http://www.homeonearth.com/,https://i.pinimg.com/564x/f7/cc/f3/f7ccf366101db1b54067ecca8418bfe6.jpg,"[41.380131, 2.1690079]","Carrer de l'Hospital, 76",Ciutat Vella,El Raval,08001,herbalist,"['Supermarket', 'Cosmetics', 'Second hand']",,,"{'10534': 3968.71, '6669': 1393.09, '11758': 2445.74}"
172,628290eba85a7a5a0184d1f9,Cal Forner,"Forn de pa artesà amb 100 anys d'història, on encara fan el pa al seu propi obrador com es feia antigament, amb farines ecològiques i massa mare.",,,https://i.pinimg.com/564x/dd/a3/6e/dda36e4305073dba20a161b41987a5b3.jpg,"[41.3815383, 2.1319166]","Carrer de Joan Güell, 125",Les Corts,Les Corts,08001,supermarket,"['Local products', 'Herbalist', 'Recycled material']",,,"{'6681': 1872.09, '6669': 1875.82, '11758': 2620.56, '10532': 1547.3}"
173,628290eba85a7a5a0184d1fa,Darthy,"Compra-Venda, reparació i restauració d'aparells d'electrònica convencional (no digital): hi-fi, ràdios, fotografia,...",,,https://cdn.pixabay.com/photo/2016/03/02/20/13/grocery-1232944_1280.jpg,"[41.3799359, 2.160671]","Floridablanca, 114",Eixample,Sant Antoni,08001,herbalist,"['Local products', 'Bakery', 'Allows pets']",,,"{'6681': 3954.72, '6669': 829.22, '11758': 2177.79, '10532': 3889.51}"
174,628290eba85a7a5a0184d1fb,Velociutat,Botiga i taller de bicicletes. Restauració de bicicletes antigues,,,https://i.pinimg.com/564x/25/ae/91/25ae91b15d98490d89536c69a617a237.jpg,"[41.3759329, 2.1625787]","Viladomat, 14",Eixample,Sant Antoni,08015,fruits & vegetables,"['Local products', 'Second hand', 'Vegan food']",,,"{'6669': 1275.91, '11758': 2649.8}"
175,628290eba85a7a5a0184d1fc,Hierbalimón,"Dietètica i alimentació ecològica, de proximitat i de comerç just.<br />
Participa a l'App ""To good to go"" en què ofereixen productes amb data de caducitat propera a millor preu.",,,https://i.pinimg.com/564x/ce/84/41/ce844160a3d2dd51382d52e955e05a50.jpg,"[41.3848914, 2.1434589]","Entença, 181",Eixample,La Nova Esquerra de l'Eixample,08001,bakery,"['Allows pets', 'Restaurant', 'Herbalist']",,,"{'6681': 2865.17, '6669': 866.01, '11758': 1748.7, '10532': 2379.29}"
176,628290eba85a7a5a0184d1fd,Forn Provença,"Forn artesà amb obrador propi de pa i bolleria. Ús de farines ecològiques, de proximitat (Banyoles, Cervera). Bosses de paper.",,,https://i.pinimg.com/564x/83/3b/9a/833b9a1f93b05d381bc442a45fca6197.jpg,"[41.3851824, 2.14842]","Provença, 69",Eixample,La Nova Esquerra de l'Eixample,08029,bar,"['Recycled material', 'Vegan food', 'Local products']",,,"{'6681': 3233.08, '6669': 451.02, '11758': 1563.72, '10532': 2787.41}"
177,628290eba85a7a5a0184d1fe,Cellarer,"Vins de proximitat,  quasi tots ecològics i biodinàmics",,,https://i.pinimg.com/564x/83/3b/9a/833b9a1f93b05d381bc442a45fca6197.jpg,"[41.3893867, 2.1582373]","Aribau, 76",Eixample,L'Antiga Esquerra de l'Eixample,08001,bakery,"['Accessible', 'Local products', 'Allows pets']",,,"{'6669': 581.51, '11758': 1116.33, '10532': 3600.73}"
178,628290eba85a7a5a0184d1ff,Fruiteria Alcaley,"Fruita i verdura, el que es pot de proximitat. En temporada també producte ecològic: taronges i clementines",,,https://i.pinimg.com/564x/01/d6/73/01d6739c176f5ee7f0192c4a3914d8d3.jpg,"[41.3876539, 2.1608079]","Consell de Cent, 271",Eixample,L'Antiga Esquerra de l'Eixample,08001,others,"['Vegan food', 'Bar', 'Bakery']",,,"{'6669': 637.07, '11758': 1379.79, '10532': 3809.06}"
179,628290eba85a7a5a0184d200,Papereria Emilio Segarra,"Material d'oficina i papereria. Paper i llibretes de paper reciclat, certificat. Material d'escriptura amb recanvi, de plàstic reciclat.<br />
Subministradors de material d'oficina sostenible per encàrrec.",,www.papeleriasegarra.com,https://i.pinimg.com/564x/71/d1/5b/71d15bfec596e1b7866ae3bc12e381d3.jpg,"[41.3866081, 2.1590303]","Muntaner, 63",Eixample,L'Antiga Esquerra de l'Eixample,08001,fruits & vegetables,"['Herbalist', 'Supermarket', 'For children']",,,"{'6669': 456.82, '11758': 1429.15, '10532': 3662.05}"
180,628290eba85a7a5a0184d201,Beiropack,"Envasos compostables, biodegradables i de cartró per la venda a hosteleria i al detall.",,www.crojas.com.es,https://i.pinimg.com/564x/8c/d4/b7/8cd4b7791b6db9189a2f9ac9bd6e81a0.jpg,"[41.3854345, 2.1579749]","Consell de Cent, 223",Eixample,L'Antiga Esquerra de l'Eixample,08001,bakery,"['Accessible', 'Supermarket', 'Bar']",,,"{'6681': 3953.52, '6669': 346.62, '11758': 1528.57, '10532': 3580.01}"
181,628290eba85a7a5a0184d202,L'Artesà de Vic,"Venta de carns i embotits de qualitat, de proximitat, algunes ecològiques. Pel que fa a les safates on envasen la carn, aquestes són biodegradables i, a més, admeten compres amb carmanyola reutilitzable dels clients. ",,https://www.eixfortpienc.com/cat/soci/l-artesa-de-vic,https://i.pinimg.com/564x/b7/ed/e3/b7ede31ce52cca67b321f8e7b615403e.jpg,"[41.4021478, 2.182933]","Diputació, 480",Eixample,Fort Pienc,08013,pharmacy,"['Herbalist', 'Supermarket', 'Recycled material']",,,"{'10533': 3946.08, '10534': 1810.95, '6669': 3064.28, '11758': 2493.44}"
182,628290eba85a7a5a0184d203,Forn Lacatarga,"Forn de pà i pastisseria artesà amb obrador propi. Farines ecològiques, de proximitat (Farinera Roca de Lleida). Bosses de paper",,,https://cdn.pixabay.com/photo/2016/03/02/20/13/grocery-1232944_1280.jpg,"[41.3988744, 2.165152]","Roselló, 278",Eixample,Dreta de l'Eixample,08001,herbalist,"['Plastic free', 'Vegan food', 'Fruits & vegetables']",,,"{'10533': 3346.52, '10534': 3330.62, '6669': 1777.13, '11758': 981.58}"
183,628290eba85a7a5a0184d204,Ekoteràpia,"Alimentació envasada ECO, tès a granel, algun ECO. Es ven en bosses de paper i molts clients les reutilitzen. Disposen també de sucre de canya de comerç just.<br />
Són punt de recollida de Cistelles de fruita i verdura ECO (Tugas i Companyia.)",,https://www.gaudishopping.cat/es/socio/ekoterapia,https://i.pinimg.com/564x/b7/ed/e3/b7ede31ce52cca67b321f8e7b615403e.jpg,"[41.4099908, 2.1747545]","Indústria, 159",Eixample,Sagrada Família,08001,cosmetics,"['Recycled material', 'Herbalist', 'Bar']",,,"{'10533': 2860.19, '10534': 2573.96, '6669': 3249.91, '11758': 2177.32}"
184,628290eba85a7a5a0184d205,Ven Vegano,Alimentació vegana envasada en la major part ecològica. Algun producte de comerç just. Higiene per la llar ecològica. Paper de WC reciclat. Higiene íntima de cotó orgànic. Vaixella de cartró. Bosses de paper i compostables.,,https://www.venvegano.com,https://i.pinimg.com/564x/83/3b/9a/833b9a1f93b05d381bc442a45fca6197.jpg,"[41.4068282, 2.1758889]","Carrer Padilla, 266",Eixample,Sagrada Família,08001,others,"['Local products', 'Plastic free', 'Herbalist']",,,"{'10533': 3161.33, '10534': 2410.5, '6669': 3016.17, '11758': 2081.13}"
185,628290eba85a7a5a0184d206,Xoc'Olive,"Alimentació ecològica, de proximitat, molta part a granel. Productes substitutius del plàstic (canyetes, raspalls de dents,...). Alimentació envasada en pots de vidre, xocolata, productes de coco i cafè de comerç just. Bosses de paper, cotó i roba.",,https://www.xocolive.com,https://cdn.pixabay.com/photo/2016/03/02/20/13/grocery-1232944_1280.jpg,"[41.4001006, 2.1418912]","Muntaner, 396",Sarrià - Sant Gervasi,Sant Gervasi - Galvany,08001,fruits & vegetables,"['Herbalist', 'Green space', 'Bar']",,,"{'10533': 2933.24, '6681': 3984.39, '6669': 1919.48, '11758': 970.52, '10532': 2635.05}"
186,628290eba85a7a5a0184d207,Llegums calderé,"Venta de llegums cuits, llegums crus i fruits secs a granel. El producte que venen és de proximitat.",,,https://i.pinimg.com/564x/f7/cc/f3/f7ccf366101db1b54067ecca8418bfe6.jpg,"[41.4336881, 2.1916304]","Carrer de Sant Adrià, 20",Sant Andreu,Sant Andreu,08030,pharmacy,"['Beverages', 'Vegan food', 'Restaurant']",,,"{'10533': 3735.2, '10534': 3484.49, '6677': 2705.41}"
187,628290eba85a7a5a0184d208,Rosa Tous,"Estilista amb venda de tints, mascaretes i xampús orgànics. Tenen gama de productes no testats en animals.",,https://rosa-tous-estilista-unisex.negocio.site/,https://i.pinimg.com/564x/b7/ed/e3/b7ede31ce52cca67b321f8e7b615403e.jpg,"[41.4342447, 2.1880139]","Carrer de Rubén Darío, 36",Sant Andreu,Sant Andreu,08030,restaurant,"['Bakery', 'Beverages', 'Allows pets']",,,"{'10533': 3457.92, '10534': 3646.24, '6677': 3010.66}"
188,628290eba85a7a5a0184d209,Biopassió,"Alimentació ecològica a granel i envasada. Tenen certs productes de proximitat (llegums, farines, cereals, mels) i d'altres més llunyans, com les espècies o els tès. <br />
Per als productes a granel utilitzen envàs de paper.",,http://www.biopassio.com/,https://i.pinimg.com/564x/83/3b/9a/833b9a1f93b05d381bc442a45fca6197.jpg,"[41.4354172, 2.1892622]","Carrer de Pons i Gallarza, 4",Sant Andreu,Sant Andreu,08030,others,"['Bakery', 'Restaurant', 'Bar']",,,"{'10533': 3593.89, '10534': 3730.51, '6677': 2957.67}"
189,628290eba85a7a5a0184d20a,El més natural,"Productes d'alimentació, dietètica, cosmètica i higiene personal ecològics. Alguns dels seus productes son de proximitat, com la mel i les herbes. <br />
Les bosses que ofereixen són de paper.",,https://www.serveisactius.cat/es/barcelones/herboristeria-dietetica-en-sant-andreu,https://i.pinimg.com/564x/10/9c/0d/109c0d7130543076a878679abc0abe9d.jpg,"[41.4383337, 2.1887606]","Carrer Gran de Sant Andreu, 357",Sant Andreu,Sant Andreu,08030,pharmacy,"['Plastic free', 'Green space', 'Allows pets']",,,"{'10533': 3661.71, '6677': 3129.05}"
190,628290eba85a7a5a0184d20b,Biopompas Sant Andreu,"Sabons, tant sòlids com líquids ecològics i a granel. Els sabons sòlids són elaborats a bohí. Els clients poden portar el seu envàs per al sabons líquids o els detergents, a la botiga també venen envasos que són reutilitzables. Les bosses que donen son de tela.",,https://biopompas.com/,https://i.pinimg.com/564x/ce/84/41/ce844160a3d2dd51382d52e955e05a50.jpg,"[41.434733, 2.1892666]","Carrer del Mercat, 6",Sant Andreu,Sant Andreu,08030,herbalist,"['For children', 'Plastic free', 'Pharmacy']",,,"{'10533': 3573.03, '10534': 3658.96, '6677': 2930.17}"
191,628290eba85a7a5a0184d20c,Granja Armengol,"Tenen productes làctics de tot tipus ecològics i de proximitat: iogurt, llet, formatge.També ous km0 i productes d'hort propi, de temporada. Es poden retornar els envasos de vidre. Descompten 2 cèntims per envàs retornat.",,http://www.granjaarmengol.com/,https://cdn.pixabay.com/photo/2016/03/02/20/13/grocery-1232944_1280.jpg,"[41.4066919, 2.1772421]","Carrer de Provença, 493",Eixample,Sagrada Família,08001,non-alimentation,"['Plastic free', 'Fruits & vegetables', 'Vegan food']",,,"{'10533': 3255.29, '10534': 2296.63, '6669': 3074.63, '11758': 2177.27}"
192,628290eba85a7a5a0184d20d,km 0 unió,"Botiga de venta directa al consumidor d’Unió, cooperativa catalana que agrupa milers d'agricultors. Venta de vins, tots els vins de proximitat i alguns ecològics. Les bosses que ofereixen són bosses de paper que es poden reutilitzar.",,http://www.km0unio.cat/,https://i.pinimg.com/564x/ce/84/41/ce844160a3d2dd51382d52e955e05a50.jpg,"[41.4030059, 2.1762996]","Carrer de la Marina, 239",Eixample,Sagrada Família,08013,fruits & vegetables,"['Bakery', 'Allows pets', 'For children']",,,"{'10533': 3486.43, '10534': 2355.92, '6669': 2715.57, '11758': 1969.14}"
193,628290eba85a7a5a0184d20e,Sardà,"Venta de productes gurmet: torrons, vins, xocolates, conserves, fruits secs, a granel; alguns dels productes són ecològics.<br />
Els envasos són de paper; algun client porta envàs reutilitzable",,https://www.calsarda.com/ca/,https://i.pinimg.com/564x/83/3b/9a/833b9a1f93b05d381bc442a45fca6197.jpg,"[41.4028103, 2.1763229]","Carrer de la Marina, 237",Eixample,Sagrada Família,08001,restaurant,"['For children', 'Pharmacy', 'Accessible']",,,"{'10533': 3503.78, '10534': 2354.98, '6669': 2701.23, '11758': 1965.91}"
194,628290eba85a7a5a0184d20f,Biodiet,"Alimentació ecològica, suplements nutricionals de procedència nacional, envasos de paper i/o compostables.",,https://www.biodiet.es/,https://cdn.pixabay.com/photo/2016/03/02/20/13/grocery-1232944_1280.jpg,"[41.4070066, 2.1752064]","Carrer del Rosselló, 473",Eixample,Sagrada Família,08001,bar,"['Recycled material', 'Cosmetics', 'Bakery']",,,"{'10533': 3106.11, '10534': 2469.61, '6669': 2997.68, '11758': 2038.8}"
195,628290eba85a7a5a0184d210,el rebost de la fruita,"Fruita i verdura ecològica i la majoria de proximitat, les bosses que ofereixen per a la fruita i verdura són compostables.",,https://www.qdq.com/el-rebost-de-la-fruita-864606,https://i.pinimg.com/564x/52/76/a7/5276a7255d2cc0514b0af1dd8b55efc7.jpg,"[41.408812, 2.1728936]","Carrer de Padilla, 319",Eixample,Sagrada Família,08001,pharmacy,"['Herbalist', 'Pharmacy', 'Allows pets']",,,"{'10533': 2828.16, '10534': 2694.28, '6669': 3056.57, '11758': 1975.08}"
196,628290eba85a7a5a0184d211,Bio Sarrià,"Establiment on es poden trobar productes ecològics i d'altres de proximitat a granel. Amplia gamma de productes de neteja, higiene, alimentació i suplements.",,http://www.biosarria.com,https://i.pinimg.com/564x/ce/84/41/ce844160a3d2dd51382d52e955e05a50.jpg,"[41.3956246, 2.1253279]","Passatge de Senillosa, 1",Sarrià - Sant Gervasi,Sarrià,08034,pharmacy,"['Fruits & vegetables', 'Allows pets', 'Herbalist']",,,"{'10533': 3878.23, '6681': 2924.05, '6669': 2637.79, '11758': 2365.87, '10532': 1240.92}"
197,628290eba85a7a5a0184d212,Llegums Cuits Orrit,"Botiga on es poden comprar llegums cuits de diversos tipus, pasta i altres productes a granel. Molts dels productes són de proximitat i també en pots trobar de varietat ecològica.",,-,https://i.pinimg.com/564x/a8/0a/07/a80a079da685d1f7b99c21146b6e674d.jpg,"[41.4048127, 2.1656793]","Carrer de Sant Antoni Maria Claret, 35",Gràcia,Camp d'en Grassot i Gràcia Nova,08001,non-alimentation,"['Beverages', 'Plastic free', 'Allows pets']",,,"{'10533': 2787.07, '10534': 3241.31, '6669': 2380.47, '11758': 1227.59}"
198,628290eba85a7a5a0184d213,Nuda Market,"Establiment on es poden trobar tot tipus de productes alimentaris a granel, de proximitat i ecològics. ",,-,https://i.pinimg.com/564x/83/3b/9a/833b9a1f93b05d381bc442a45fca6197.jpg,"[41.4070488, 2.1576542]","Carrer de la Providencia, 64",Gràcia,Vila de Gràcia,08024,bar,"['Accessible', 'For children', 'Allows pets']",,,"{'10533': 2264.36, '10534': 3924.75, '6669': 2434.98, '11758': 989.82}"
199,628290eba85a7a5a0184d214,Barnaclip SCP,"Papereria on es venen productes elaborats a partir de paper reciclat (llibretes i agendes amb el certificat de reciclat), treballen amb empreses ""km0"" com Miquelrius o Busquets; recullen cartutxos de tòner per a reciclar i tenen alguns productes recarregables (bolígrafs i retoladors).<br />
<br />
 ",,https://empresite.eleconomista.es/BARNA-CLIP.html,https://i.pinimg.com/564x/fb/ef/60/fbef60ff298f65e2cb8757827aa1dfb7.jpg,"[41.3992269, 2.1768483]","Carrer del Consell de Cent, 468",Eixample,Fort Pienc,08013,fruits & vegetables,"['Plastic free', 'Accessible', 'Supermarket']",,,"{'10533': 3834.9, '10534': 2365.5, '6669': 2464.54, '11758': 1957.8}"
200,628290eba85a7a5a0184d215,Herboristeria Margarida Castaño,"Herboristeria amb productes d'alimentació ecològica, fruits secs, fruita i caramels a granel, productes de neteja ecològica i productes naturals. Bosses biodegradables.",,http://hermargarida.webcindario.com/,https://i.pinimg.com/564x/dd/a3/6e/dda36e4305073dba20a161b41987a5b3.jpg,"[41.4020844, 2.1836949]","Carrer de los Castillejos, 181",Eixample,Fort Pienc,08001,alimentation,"['Beverages', 'Second hand', 'Fruits & vegetables']",,,"{'10533': 3997.93, '10534': 1748.57, '6669': 3110.66, '11758': 2555.23}"
201,628290eba85a7a5a0184d216,Supermercat frooty,"Venta de productes a granel i envasats (alimentació, herbodietètica i neteja). El 95% de producte és ecològic, i tot el que és possible és de proximitat (sobretot la fruita i la verdura). Els envasos que ofereixen són de paper i cartró, no tenen plàstic.",,https://frooty.es/,https://i.pinimg.com/564x/71/d1/5b/71d15bfec596e1b7866ae3bc12e381d3.jpg,"[41.3955859, 2.1810363]","Carrer d'Ausiàs Marc, 113",Eixample,Fort Pienc,08013,alimentation,"['Recycled material', 'For children', 'Bakery']",,,"{'10534': 2165.21, '6669': 2540.08, '11758': 2333.0}"
202,628290eba85a7a5a0184d217,Saüc,"Botiga de roba i complements. <br />
Producte eco (roba i complements ecològics), tot el producte és de km 0, a més, tenen un elevat percentatge de productes amb etiquetatge de comerç just.",,https://www.saucbotiga.cat/,https://i.pinimg.com/564x/a8/0a/07/a80a079da685d1f7b99c21146b6e674d.jpg,"[41.3758531, 2.1383803]","Carrer de Riego, 9",Sants - Montjuïc,Sants,08014,cosmetics,"['Bar', 'Fruits & vegetables', 'Accessible']",,,"{'6681': 2041.8, '6669': 1665.13, '11758': 2836.41, '10532': 2330.18}"
203,628290eba85a7a5a0184d218,Homo Sibaris,Celler amb producte ecològic i de km 0 (vinsi cerveses). Cervesa a granel; disposen d'envàs reutilitzable).,,http://www.homosibaris.com/,https://i.pinimg.com/564x/52/76/a7/5276a7255d2cc0514b0af1dd8b55efc7.jpg,"[41.3762829, 2.1388288]","Plaça d'Osca, 4",Sants - Montjuïc,Sants,08001,beverages,"['Recycled material', 'Accessible', 'Green space']",,,"{'6681': 2091.81, '6669': 1605.95, '11758': 2777.04, '10532': 2335.55}"
204,628290eba85a7a5a0184d219,Kitikate,"Botiga de roba de nadó i complements. <br />
Tot el producte és ecològic (roba de cotó orgànic, tota porta el segell certificat ecològic).",,https://kitikate.es/,https://i.pinimg.com/564x/71/d1/5b/71d15bfec596e1b7866ae3bc12e381d3.jpg,"[41.3750989, 2.1408029]","Carrer de Joanot Martorell, 2",Sants - Montjuïc,Sants,08001,herbalist,"['Restaurant', 'Beverages', 'Vegan food']",,,"{'6681': 2215.12, '6669': 1573.75, '11758': 2830.91, '10532': 2545.22}"
205,628290eba85a7a5a0184d21a,Escudero Garcia,"Farmacia amb productes ecològics, com raspalls de dents de bambú i compreses de cotó orgànic.",,,https://cdn.pixabay.com/photo/2016/03/02/20/13/grocery-1232944_1280.jpg,"[41.3751772, 2.1405746]","Carrer de Sants, 5",Sants - Montjuïc,Sants,08014,restaurant,"['Restaurant', 'Bakery', 'Green space']",,,"{'6681': 2198.63, '6669': 1580.72, '11758': 2829.96, '10532': 2524.49}"
206,628290eba85a7a5a0184d21b,Studio D,"Perruqueria amb productes pel tractament del cabell eco i orgànics, a més, tenen també productes vegans.",,http://studiod.es/,https://i.pinimg.com/564x/fb/ef/60/fbef60ff298f65e2cb8757827aa1dfb7.jpg,"[41.375195, 2.1395895]","Carrer de Sants, 25",Sants - Montjuïc,Sants,08001,fruits & vegetables,"['Bar', 'Fruits & vegetables', 'Local products']",,,"{'6681': 2119.34, '6669': 1637.88, '11758': 2860.2, '10532': 2454.73}"
207,628290eba85a7a5a0184d21c,Torrons Viar,"Botiga de gran varietat de torrons artesans i naturals, tot el producte venut és de km0.<br />
 ",,http://www.viar.es/,https://i.pinimg.com/564x/8c/d4/b7/8cd4b7791b6db9189a2f9ac9bd6e81a0.jpg,"[41.373469, 2.1366003]","Carrer d'Olzinelles, 23",Sants - Montjuïc,Sants,08001,bar,"['Allows pets', 'Bar', 'Supermarket']",,,"{'6681': 1834.59, '6669': 1951.17, '11758': 3139.89, '10532': 2373.25}"
208,628290eba85a7a5a0184d21d,Farmàcia Martos,"Farmacia amb productes de dermocosmètica eco i bio, raspall de dents de bambú, esponges naturals.",,,https://cdn.pixabay.com/photo/2016/03/02/20/13/grocery-1232944_1280.jpg,"[41.3716128, 2.1372604]","Carrer d'Olzinelles, 71",Sants - Montjuïc,Sants,08014,pharmacy,"['Herbalist', 'Supermarket', 'Allows pets']",,,"{'6681': 1863.89, '6669': 2058.97, '11758': 3303.1, '10532': 2553.16}"
209,628290eba85a7a5a0184d21e,La botigueta del barri,"<br />
Botiga de carns, embotits, formatges, cremes de verdures i ous ecològics i de proximitat. Les oueres són reutlitzables.",,https://la-botigueta-del-barri.negocio.site/,https://i.pinimg.com/564x/07/d2/8f/07d28f2f30af7ee6ec671163498d5600.jpg,"[41.3714682, 2.1336204]","Carrer de la Riera de Tena, 30",Sants - Montjuïc,Sants,08001,alimentation,"['Second hand', 'For children', 'Allows pets']",,,"{'6681': 1559.75, '6669': 2284.8, '11758': 3452.1, '10532': 2355.27}"
210,628290eba85a7a5a0184d21f,el calaix,"Botiga de complements de roba, tenen productes de km 0 i realitzen tallers de confecció de roba.",,https://www.elcalaix.es/,https://i.pinimg.com/564x/a8/0a/07/a80a079da685d1f7b99c21146b6e674d.jpg,"[41.3739125, 2.1333413]","Carrer de Sant Medir, 19",Sants - Montjuïc,Sants,08001,others,"['For children', 'Second hand', 'Supermarket']",,,"{'6681': 1578.95, '6669': 2129.47, '11758': 3227.92, '10532': 2140.49}"
211,628290eba85a7a5a0184d220,Ferreteria Badal,"Ferreteria amb productes de baix consum (bombetes, estalviadors d'aigua per a les aixetes), productes a granel (cargols i arandeles) i paelles eco.",,,https://i.pinimg.com/564x/f7/cc/f3/f7ccf366101db1b54067ecca8418bfe6.jpg,"[41.371508, 2.1359728]","Carrer dels Jocs Florals, 140",Sants - Montjuïc,Sants,08001,supermarket,"['Pharmacy', 'Fruits & vegetables', 'Cosmetics']",,,"{'6681': 1755.91, '6669': 2140.92, '11758': 3358.79, '10532': 2484.96}"
212,628290eba85a7a5a0184d221,Patch kukades,"Botiga de complements de roba amb una gran selecció de productes sostenibles:<br />
<br />
Discos desmaquillants eco, compreses de roba, boc'n rolls, bosses de malla per a la fruita, fundes de roba per a llibres, bosses de roba per als paraigues, totebags i cabassos per a la compra, tovalloletes de roba per a bebès i mascaretes de roba. Tot el producte és fet per ells, a més, fan tallers de patchwork.",,https://www.instagram.com/kukadesdesign/?hl=es,https://i.pinimg.com/564x/f7/cc/f3/f7ccf366101db1b54067ecca8418bfe6.jpg,"[41.3745167, 2.1327683]","Carrer de Sant Medir, 18",Sants - Montjuïc,Sants,08001,herbalist,"['Second hand', 'Cosmetics', 'Green space']",,,"{'6681': 1550.56, '6669': 2129.33, '11758': 3196.11, '10532': 2059.26}"
213,628290eba85a7a5a0184d222,Farmàcia boada,"Farmàcia amb productes eco (complements alimentaris, fitoteràpia); a vegades treballen amb algun laboratori petit de km 0. Tenen punt sigre per a la recollida de medicaments",,http://www.farmaciaboada.com/,https://i.pinimg.com/564x/dd/a3/6e/dda36e4305073dba20a161b41987a5b3.jpg,"[41.3747713, 2.1328455]","Carrer de Sant Medir, 12",Sants - Montjuïc,Sants,08028,beverages,"['Recycled material', 'Restaurant', 'Supermarket']",,,"{'6681': 1565.08, '6669': 2108.11, '11758': 3168.8, '10532': 2044.18}"
214,628290eba85a7a5a0184d223,Llet crua,"Botiga de productes làctics ecològics (formatges i llet), mels i formatges de km 0, amb envasos de paper plastificat.",,https://www.lletcrua.cat/es/home-espanol/,https://i.pinimg.com/564x/dd/6f/8e/dd6f8eeffb20cefbccad7d60f831771b.jpg,"[41.3749546, 2.1330136]","Carrer de Càceres, 14",Sants - Montjuïc,Sants,08028,fruits & vegetables,"['Restaurant', 'Plastic free', 'Supermarket']",,,"{'6681': 1584.7, '6669': 2085.12, '11758': 3144.07, '10532': 2040.35}"
215,628290eba85a7a5a0184d224,Molsa,"Botiga alimentaria amb productes eco (begudes, tes, olis essencials, pastes,snacks, llegums), fruita i verdura ecològica i de proximitat.",,https://rel.bio/botiga/molsa-bio-sants/,https://i.pinimg.com/564x/dd/6f/8e/dd6f8eeffb20cefbccad7d60f831771b.jpg,"[41.37504, 2.1339052]","Carrer de Sant Jordi, 7",Sants - Montjuïc,Sants,08001,restaurant,"['Vegan food', 'Restaurant', 'Fruits & vegetables']",,,"{'6681': 1658.4, '6669': 2018.2, '11758': 3096.41, '10532': 2089.0}"
216,628290eba85a7a5a0184d225,El Gibrell,"El gibrell és la teva botiga de sabons i detergents a granel ecològics i naturals de Sants, just davant del Mercat Nou.<br />
Què hi trobaras: producte ecològic pel cos, estris i accessoris naturals per a la higiene personal o per a la neteja de la llar, regals originals i ecològics pels amics i esdeveniments,… Tot això i molt més.<br />
Si el que vols son sabons a granel, porta el teu envàs de casa i omple’l amb el producte que més t’agradi. Fer servir envasos reutilitzables redueix la petjada ecològica.<br />
Recorda: Reutilitza, Redueix, Rebutja el plàstic!<br />
<br />
<iframe allow=""accelerometer; autoplay; encrypted-media; gyroscope; picture-in-picture"" allowfullscreen="""" frameborder=""0"" height=""315"" src=""https://www.youtube.com/embed/XrZpI52wW04"" width=""100%""></iframe><br />
<br />
També tenim <a href=""https://www.bcnsostenible.cat/web/punt/el-gibrell-2"" target=""_blank"">botiga a Sant Antoni</a>",,https://www.elgibrell.com/,https://i.pinimg.com/564x/10/9c/0d/109c0d7130543076a878679abc0abe9d.jpg,"[41.3746484, 2.1339235]","Carrer de Sant Jordi, 15",Sants - Montjuïc,Sants,08028,herbalist,"['Pharmacy', 'Fruits & vegetables', 'Bar']",,,"{'6681': 1647.15, '6669': 2041.98, '11758': 3132.76, '10532': 2119.23}"
217,628290eba85a7a5a0184d226,Ecobaires,"Producte ecològic, de km 0, fruites i verdures, productes vegans envasats, amb el certificat ecològic, begudes… Estan intentant que el producte envasat els hi portin en envàs compostable.",,https://www.facebook.com/101702697982541/posts/inauguracion-ya-estamos-abiertos-encontranos-en-sants-141-barcelonate-esperamos/127629938723150/,https://i.pinimg.com/564x/01/d6/73/01d6739c176f5ee7f0192c4a3914d8d3.jpg,"[41.3753636, 2.1333483]","N-340, 141",Sants - Montjuïc,Sants,08001,supermarket,"['Local products', 'Accessible', 'Second hand']",,,"{'6681': 1625.8, '6669': 2036.8, '11758': 3090.71, '10532': 2030.36}"
218,628290eba85a7a5a0184d227,Diet center,"Productes d'herbodietètica ecològics, productes de neteja ecològics, cosmètics eco, aliments orgànics i productes vegans.",,https://herbodieteticadietcenter.es/,https://i.pinimg.com/564x/52/76/a7/5276a7255d2cc0514b0af1dd8b55efc7.jpg,"[41.3756117, 2.1307944]","Rambla de Badal, 216",Sants - Montjuïc,Sants,08001,restaurant,"['Local products', 'Herbalist', 'Bar']",,,"{'6681': 1437.26, '6669': 2204.87, '11758': 3188.65, '10532': 1856.64}"
219,628290eba85a7a5a0184d228,Farmàcia Damaris,"Farmàcia amb secció de productes eco i bio (suplements i dietètica principalment), tenen punt sigre.",,https://www.canalfarmaciaonline.com/farmacia-damaris,https://i.pinimg.com/564x/ce/84/41/ce844160a3d2dd51382d52e955e05a50.jpg,"[41.3764297, 2.1305983]","Rambla del Brasil, 14",Sants - Montjuïc,Sants,08028,non-alimentation,"['Herbalist', 'Beverages', 'Vegan food']",,,"{'6681': 1460.96, '6669': 2176.25, '11758': 3125.66, '10532': 1781.21}"
220,628290eba85a7a5a0184d229,Manantial de Salud,"Herbodietètica. La majoria de productes són eco (suplements, herbes), productes de km 0 (mel i plantes de lleida).",,https://www.manantial-salud.com/,https://i.pinimg.com/564x/01/d6/73/01d6739c176f5ee7f0192c4a3914d8d3.jpg,"[41.3800045, 2.1367981]","Carrer del Vallespir, 82",Sants - Montjuïc,Sants,08001,herbalist,"['Herbalist', 'Fruits & vegetables', 'Allows pets']",,,"{'6681': 2105.44, '6669': 1539.25, '11758': 2501.25, '10532': 1988.5}"
221,628290eba85a7a5a0184d22a,BeSalut,"Herbodietètica, compta amb productes ecològics, cosmètica bio, suplements, una gran part del producte és de proximitat.",,,https://i.pinimg.com/564x/dd/6f/8e/dd6f8eeffb20cefbccad7d60f831771b.jpg,"[41.3822553, 2.1374862]","Carrer de Berlín, 12",Sants - Montjuïc,Sants,08001,pharmacy,"['Vegan food', 'For children', 'Bar']",,,"{'6681': 2288.38, '6669': 1405.39, '11758': 2262.8, '10532': 1952.15}"
222,628290eba85a7a5a0184d22b,Bioshop,"Herbolari. Venta de productes eco (mel, galetes, sucres, llegums, alimentació…) Alguna marca de producte de km 0 (de cal valls)",,,https://i.pinimg.com/564x/f7/cc/f3/f7ccf366101db1b54067ecca8418bfe6.jpg,"[41.3833908, 2.1409499]","Carrer de Nicaragua, 49",Sants - Montjuïc,Sants,08001,cosmetics,"['Vegan food', 'Recycled material', 'Fruits & vegetables']",,,"{'6681': 2598.44, '6669': 1095.56, '11758': 1997.56, '10532': 2200.08}"
223,628290eba85a7a5a0184d22c,Real food granel,"Venta de productes a granel (aliment, tes, sabons vegans, productes de neteja, espècies, cafès eco, farines eco), els productes ecològics estan certificats. Fruita i verdura de proximitat.",,https://realfoodgranel.es/,https://i.pinimg.com/564x/b7/ed/e3/b7ede31ce52cca67b321f8e7b615403e.jpg,"[41.380923, 2.1336102]","Carrer de Galileu, 175",Sants - Montjuïc,Sants,08028,fruits & vegetables,"['Supermarket', 'Pharmacy', 'For children']",,,"{'6681': 1939.34, '6669': 1756.35, '11758': 2578.32, '10532': 1704.29}"
224,628290eba85a7a5a0184d22d,Capità enciam,"Venta de fruita i verdura ecològica, de km0, producte sec a granel i altres productes com begudes eco.",,https://capitaenciam.cat/,https://i.pinimg.com/564x/a8/0a/07/a80a079da685d1f7b99c21146b6e674d.jpg,"[41.3798313, 2.1341092]","Carrer de Galileu, 139",Sants - Montjuïc,Sants,08001,restaurant,"['Second hand', 'Bar', 'Recycled material']",,,"{'6681': 1904.13, '6669': 1755.02, '11758': 2647.26, '10532': 1796.25}"
225,628290eba85a7a5a0184d22e,Farmàcia Marta Monzo,"<br />
Farmàcia amb productes ecològics (suplements, raspall de bambú, fil dental biodegradable). A més, disposen de punt sigre per a la recollida i el tractament de medicaments que esdevenen residus.",,,https://i.pinimg.com/564x/dd/a3/6e/dda36e4305073dba20a161b41987a5b3.jpg,"[41.3782141, 2.1429779]","Carrer del Rector Triadó, 84",Sants - Montjuïc,Hostafrancs,08014,supermarket,"['Supermarket', 'Vegan food', 'Restaurant']",,,"{'6681': 2489.15, '6669': 1202.67, '11758': 2442.25, '10532': 2540.34}"
226,628290eba85a7a5a0184d22f,Scandinavian,"<br />
Perruqueria a la que treballen amb productes de la marca ""davines"" (productes per al tractament del cabell sostenibles). A més, tota la fusta de la botiga és sostenible.",,,https://i.pinimg.com/564x/ce/84/41/ce844160a3d2dd51382d52e955e05a50.jpg,"[41.3781014, 2.1441613]","Carrer de Béjar, 73",Sants - Montjuïc,Hostafrancs,08014,bakery,"['Recycled material', 'Bakery', 'Fruits & vegetables']",,,"{'6681': 2577.95, '6669': 1139.09, '11758': 2420.8, '10532': 2635.82}"
227,628290eba85a7a5a0184d230,Jubierre,"<br />
Botiga d'alimentació i queviures. Tot el producte que venen es de proximitat , s'hi pot trobar fruita i verdura a granel, formatges, embotits, vins i caves, conserves...",,,https://i.pinimg.com/564x/01/d6/73/01d6739c176f5ee7f0192c4a3914d8d3.jpg,"[41.3761248, 2.1404138]","Carrer de l'Espanya Industrial, 15",Sants - Montjuïc,Hostafrancs,08001,supermarket,"['Bar', 'Fruits & vegetables', 'Pharmacy']",,,"{'6681': 2213.01, '6669': 1517.05, '11758': 2737.96, '10532': 2457.42}"
228,628290eba85a7a5a0184d231,fresh km0,"<br />
Botiga de fruita i verdura. Tot el producte que ven es de proximitat (fruita i verdura directa del pagès, sense intermediaris). Dilluns i dijous van als camps del baix llobregat, santa coloma i el prat per a recollir el producte. Producte ecològic i sense intermediaris.",,https://www.freshkm0.com/,https://i.pinimg.com/564x/52/76/a7/5276a7255d2cc0514b0af1dd8b55efc7.jpg,"[41.3753359, 2.1442326]","Carrer de la Creu Coberta, 78",Sants - Montjuïc,Hostafrancs,08001,fruits & vegetables,"['Supermarket', 'Vegan food', 'Allows pets']",,,"{'6681': 2499.99, '6669': 1370.25, '11758': 2712.44, '10532': 2777.23}"
229,628290eba85a7a5a0184d232,Bureau Vallée,"<br />
Papereria amb productes ecològics; llibretes i carpesans de paper reciclat, productes ""save the ocean""; els productes d'aquesta marca estan elaborats a partir de plàstic recollit dels oceans i reciclats. ",,https://bureau-vallee.es/sants/,https://i.pinimg.com/564x/71/d1/5b/71d15bfec596e1b7866ae3bc12e381d3.jpg,"[41.3753843, 2.1428495]","Carrer de la Creu Coberta, 94",Sants - Montjuïc,Hostafrancs,08001,cosmetics,"['Cosmetics', 'Plastic free', 'Allows pets']",,,"{'6681': 2388.62, '6669': 1436.52, '11758': 2742.06, '10532': 2674.28}"
230,628290eba85a7a5a0184d233,Sinzero,"Botiga de productes de dermocosmètica ecològics, alguns de laboratoris de proximitat i d'altres no. Bossa de paper reciclat. Es tracta d'una botiga on els productes que venen són residu zero.",,https://www.sinzero.es/,https://i.pinimg.com/564x/a8/0a/07/a80a079da685d1f7b99c21146b6e674d.jpg,"[41.375379, 2.1426455]","Carrer de la Creu Coberta, 98",Sants - Montjuïc,Hostafrancs,08001,cosmetics,"['Restaurant', 'Bar', 'Accessible']",,,"{'6681': 2371.91, '6669': 1447.88, '11758': 2748.12, '10532': 2659.89}"
231,628290eba85a7a5a0184d234,Labperfum,"<br />
Botiga de perfums ecològics a granel. Els envasos per al perfum són reutilitzables, si els clients porten l'envàs tenen 2€ de descompte.",,https://labperfum.com/,https://i.pinimg.com/564x/a8/0a/07/a80a079da685d1f7b99c21146b6e674d.jpg,"[41.3754863, 2.1415002]","Carrer de la Creu Coberta, 116",Sants - Montjuïc,Hostafrancs,08001,pharmacy,"['Accessible', 'Green space', 'Allows pets']",,,"{'6681': 2281.85, '6669': 1502.47, '11758': 2769.59, '10532': 2571.71}"
232,628290eba85a7a5a0184d235,Ferreteria Gran Via,"Ferreteria on venen paelles ecològiques, productes de neteja ecològics, productes de baix consum (bombetes i estalvi d'aigua), productes a granel (cargols) i pintures ecològiques.",,https://valomix.com/,https://cdn.pixabay.com/photo/2016/03/02/20/13/grocery-1232944_1280.jpg,"[41.3716111, 2.1442162]","Gran Via de les Corts Catalanes, 283",Sants - Montjuïc,Hostafrancs,08001,alimentation,"['Accessible', 'Supermarket', 'Cosmetics']",,,"{'6681': 2443.34, '6669': 1724.19, '11758': 3112.4, '10532': 2999.56}"
233,628290eba85a7a5a0184d236,Santiveri,"Herbodietètica amb productes ecològics (suplements), alguns productes són de km0 (mels i melmelades).",,https://www.santiveri.com/es/home,https://i.pinimg.com/564x/dd/a3/6e/dda36e4305073dba20a161b41987a5b3.jpg,"[41.3732401, 2.1461047]","Carrer de Sant Roc, 2",Sants - Montjuïc,Hostafrancs,08001,restaurant,"['Accessible', 'Green space', 'Beverages']",,,"{'6681': 2615.56, '6669': 1491.59, '11758': 2900.11, '10532': 3029.79}"
234,628290eba85a7a5a0184d237,Celler Hostafrancs,"Celler amb productes ecològics (vins, caves, olis, conserves). Els vins i els caves són de km0. Es ven producte a granel amb envàs reutilitzable.",,,https://i.pinimg.com/564x/b7/ed/e3/b7ede31ce52cca67b321f8e7b615403e.jpg,"[41.3744031, 2.1455628]","Carrer de Sant Roc, 22",Sants - Montjuïc,Hostafrancs,08001,bar,"['Allows pets', 'Accessible', 'Bakery']",,,"{'6681': 2589.13, '6669': 1397.8, '11758': 2784.04, '10532': 2924.89}"
235,628290eba85a7a5a0184d238,Ferreteria Leo,"Ferreteria amb productes de baix consum (bombetes led i estalviadors d'aigua), pintures eco, productes a granel (cargols i arandeles principalment).",,https://ferreterias.cadena88.com/,https://i.pinimg.com/564x/52/76/a7/5276a7255d2cc0514b0af1dd8b55efc7.jpg,"[41.3730884, 2.1422814]","Carrer del Moianès, 49",Sants - Montjuïc,Hostafrancs,08001,bar,"['Bar', 'Local products', 'Supermarket']",,,"{'6681': 2296.82, '6669': 1668.25, '11758': 2999.3, '10532': 2772.61}"
236,628290eba85a7a5a0184d239,La Dietètica,Herbodietètica on disposen de productes ecològics i biològics (sobretot suplements alimentaris).,,https://www.ladieteticabarcelona.com/,https://cdn.pixabay.com/photo/2016/03/02/20/13/grocery-1232944_1280.jpg,"[41.3751339, 2.141706]","Carrer de la Creu Coberta, 127",Sants - Montjuïc,Hostafrancs,08001,herbalist,"['Allows pets', 'Cosmetics', 'Restaurant']",,,"{'6681': 2289.38, '6669': 1519.81, '11758': 2800.2, '10532': 2606.84}"
237,628290eba85a7a5a0184d23a,Restory,"Botiga de venta de llibres de segona mà, les estanteries on disposen els llibres estan fetes a partir de ferro reciclat.",,www.restory.es,https://cdn.pixabay.com/photo/2016/03/02/20/13/grocery-1232944_1280.jpg,"[41.3809198, 2.1577618]","Carrer del Comte Borrell, 133",Eixample,Sant Antoni,08015,alimentation,"['Bakery', 'Accessible', 'Restaurant']",,,"{'6681': 3753.52, '6669': 591.29, '11758': 2015.2, '10532': 3629.28}"
238,628290eba85a7a5a0184d23b,El Gibrell,"Botiga de venta de productes d'higiene personal i higiene de la llar eco i naturals. Productes de comerç just (carité, cremes, bosses, mascaretes de cabell), productes residu 0 (sabons al tall, xampús a granel, xampus naturals, pasta de dents solida i compreses de roba). Envas de detergent a granel retornable i reutilitzable. Fer servir envasos reutilitzables amb els detergents redueix la petjada ecològica.<br />
<br />
<iframe allow=""accelerometer; autoplay; encrypted-media; gyroscope; picture-in-picture"" allowfullscreen="""" frameborder=""0"" height=""315"" src=""https://www.youtube.com/embed/XrZpI52wW04"" width=""100%""></iframe><br />
<br />
També tenim <a href=""https://www.bcnsostenible.cat/web/punt/el-gibrell-1"" target=""_blank"">botiga a Sants</a>",,https://www.elgibrell.com/es/inicio/,https://i.pinimg.com/564x/dd/a3/6e/dda36e4305073dba20a161b41987a5b3.jpg,"[41.3774961, 2.1619279]","Carrer de Manso, 60",Eixample,Sant Antoni,08001,bakery,"['Herbalist', 'Allows pets', 'For children']",,,"{'6681': 3994.45, '6669': 1103.68, '11758': 2467.7}"
239,628290eba85a7a5a0184d23c,Macrobiótica Ayurveda BCN,"<br />
Herbodietètica amb venta de productes d'alimentació i dietètica naturals i ecològics, vegans. El proveidor dels seus productes es ""vegetalia"", proveidor de productes ecològics.",,,https://i.pinimg.com/564x/fb/ef/60/fbef60ff298f65e2cb8757827aa1dfb7.jpg,"[41.376394, 2.1529193]","Carrer de Vilamarí, 26",Eixample,Sant Antoni,08001,supermarket,"['Cosmetics', 'Beverages', 'Bar']",,,"{'6681': 3233.41, '6669': 997.6, '11758': 2485.4, '10532': 3383.96}"
240,628290eba85a7a5a0184d23d,Els sortidors del parlament,"<br />
Celler - bodega amb venta de productes a granel (sangria i vermut), vins catalans (montsant, priorat, costes segre, penedès), productes eco i bio (vins), cerveses artesanes… Disposen de sifó retornable.",,http://www.elssortidors.com/,https://i.pinimg.com/564x/dd/a3/6e/dda36e4305073dba20a161b41987a5b3.jpg,"[41.3776587, 2.1636934]","Carrer del Parlament, 53",Eixample,Sant Antoni,08015,supermarket,"['For children', 'Accessible', 'Green space']",,,"{'6669': 1186.52, '11758': 2497.21}"
241,628290eba85a7a5a0184d23e,Locos por la fruta,"<br />
Fruiteria dividida en dues zones: una de les seccions consta de productes certificats ecològics.",,,https://i.pinimg.com/564x/83/3b/9a/833b9a1f93b05d381bc442a45fca6197.jpg,"[41.3903633, 2.1259273]","Carrer del Capità Arenas, 15",Les Corts,Pedralbes,08001,herbalist,"['Beverages', 'Bar', 'Vegan food']",,,"{'6681': 2390.13, '6669': 2393.19, '11758': 2472.7, '10532': 954.33}"
242,628290eba85a7a5a0184d23f,Forn fortino,"Forn de pa on elaboren el producte amb farina d'espelta ecològica, es tracta d'un forn tradicional, on es poden trobar també productes a granel (galetes). ",,,https://i.pinimg.com/564x/01/d6/73/01d6739c176f5ee7f0192c4a3914d8d3.jpg,"[41.4001493, 2.1560688]","Travessera de Gràcia, 126",Gràcia,Vila de Gràcia,08012,others,"['Vegan food', 'Accessible', 'Plastic free']",,,"{'10533': 2960.99, '6669': 1657.35, '11758': 273.05, '10532': 3692.37}"
243,628290eba85a7a5a0184d240,Al Gra,"Botiga on s'hi pot trobar venta a granel de cereals, arròs, llegums, fruits secs... Tot el producte compta amb certificat ecològic.",,,https://i.pinimg.com/564x/71/d1/5b/71d15bfec596e1b7866ae3bc12e381d3.jpg,"[41.3996038, 2.1541543]","Carrer de Sant Cristòfol, 21",Gràcia,Vila de Gràcia,08012,non-alimentation,"['Allows pets', 'Supermarket', 'Beverages']",,,"{'10533': 2988.54, '6669': 1586.31, '11758': 115.23, '10532': 3521.62}"
244,628290eba85a7a5a0184d241,El Cau,"<br />
Alimentació ecològica a granel, de proximitat. Són cooperativa. A aquest comerç es reutilitzen tot tipus d'envasos i es fomenta la pràctica amb els clients (bosses de plastic, oueres, pots de vidre,...).",,,https://i.pinimg.com/564x/f7/cc/f3/f7ccf366101db1b54067ecca8418bfe6.jpg,"[41.4002875, 2.1593656]","Carrer del Torrent de l'Olla, 51",Gràcia,Vila de Gràcia,08001,herbalist,"['Allows pets', 'Fruits & vegetables', 'Herbalist']",,,"{'10533': 3020.76, '10534': 3787.49, '6669': 1725.22, '11758': 527.56, '10532': 3953.49}"
245,628290eba85a7a5a0184d242,El Cau,"<br />
Alimentació ecològica a granel, de proximitat. Són cooperativa. A aquest comerç es reutilitzen tot tipus d'envasos i fomenten la pràctica amb els clients (bosses de plastic, oueres, pots de vidre,...).",,,https://i.pinimg.com/564x/fb/ef/60/fbef60ff298f65e2cb8757827aa1dfb7.jpg,"[41.4028028, 2.159525]","Carrer de Torrijos, 16",Gràcia,Vila de Gràcia,08001,beverages,"['Recycled material', 'For children', 'Local products']",,,"{'10533': 2761.21, '10534': 3754.91, '6669': 1999.2, '11758': 682.67}"
246,628290eba85a7a5a0184d243,L'Ecoteca,"<br />
Productes d'alimentació ecològics, de proximitat. Productes de neteja a granel, disposen de bosses de compra a granel, cantimplores, kombutxa i aigua en envasos retornables.",,,https://i.pinimg.com/564x/a8/0a/07/a80a079da685d1f7b99c21146b6e674d.jpg,"[41.4060414, 2.1561407]","Carrer de la Providència, 20",Gràcia,Vila de Gràcia,08024,restaurant,"['Bar', 'Cosmetics', 'Fruits & vegetables']",,,"{'10533': 2329.5, '6669': 2310.0, '11758': 843.46, '10532': 3993.47}"
247,628290eba85a7a5a0184d244,Sol Nature,"<br />
Productes de dietètica, amb certificat ecològic; herbes a granel, fruita i verdura ecològica i de km0.",,,https://i.pinimg.com/564x/b7/ed/e3/b7ede31ce52cca67b321f8e7b615403e.jpg,"[41.4000432, 2.1531014]","Plaça de la Llibertat, 13",Gràcia,Vila de Gràcia,08001,herbalist,"['Green space', 'Bakery', 'Second hand']",,,"{'10533': 2926.35, '6669': 1636.03, '11758': 146.5, '10532': 3460.05}"
248,628290eba85a7a5a0184d245,Molsa Biosí aliments ecològics,"<br />
Comerç que disposa d'alimentació ecològica amb certificat i amb una part de venda a granel.",,,https://i.pinimg.com/564x/83/3b/9a/833b9a1f93b05d381bc442a45fca6197.jpg,"[41.402694, 2.1587944]","Carrer de Ramón y Cajal, 42",Gràcia,Vila de Gràcia,08012,alimentation,"['Fruits & vegetables', 'Accessible', 'Second hand']",,,"{'10533': 2752.01, '10534': 3816.21, '6669': 1973.75, '11758': 629.73}"
249,628290eba85a7a5a0184d246,Vegetart,"<br />
Venta de menjar vegà amb farines, soja i cereals ecològiques per emportar, els tuppers es reutilitzen i accepta tuppers de la gent.",,,https://i.pinimg.com/564x/07/d2/8f/07d28f2f30af7ee6ec671163498d5600.jpg,"[41.4028417, 2.1564671]","Carrer del Torrent de l'Olla, 138",Gràcia,Vila de Gràcia,08012,beverages,"['Restaurant', 'Supermarket', 'Plastic free']",,,"{'10533': 2678.89, '6669': 1958.57, '11758': 523.25, '10532': 3846.26}"
250,628290eba85a7a5a0184d247,Verema i Collita,"<br />
Vins a granel, alguns ecològic. Sifó, Vichy, Coca-cola, Schweppes, cervesa",,,https://i.pinimg.com/564x/b7/ed/e3/b7ede31ce52cca67b321f8e7b615403e.jpg,"[41.4054443, 2.1621438]","Plaça d'En Joanic, 7",Gràcia,Vila de Gràcia,08001,supermarket,"['Vegan food', 'Fruits & vegetables', 'Bar']",,,"{'10533': 2580.26, '10534': 3538.78, '6669': 2340.79, '11758': 1043.51}"
251,628290eba85a7a5a0184d248,La Marieta,"<br />
Comsmètica i complementació natural i ecològica. ",,,https://i.pinimg.com/564x/8c/d4/b7/8cd4b7791b6db9189a2f9ac9bd6e81a0.jpg,"[41.4049927, 2.1555516]","Carrer de Verdi, 75",Gràcia,Vila de Gràcia,08012,bar,"['Fruits & vegetables', 'Second hand', 'Herbalist']",,,"{'10533': 2428.06, '6669': 2190.04, '11758': 718.04, '10532': 3891.89}"
252,628290eba85a7a5a0184d249,Natural Mediterrani,"<br />
Cosmetica natural i ecològica, augmentant l'oferta a granel i preparen regals residu zero. ",,,https://i.pinimg.com/564x/01/d6/73/01d6739c176f5ee7f0192c4a3914d8d3.jpg,"[41.4033081, 2.1541499]","Carrer d'Astúries, 33",Gràcia,Vila de Gràcia,08012,cosmetics,"['Recycled material', 'Allows pets', 'Bar']",,,"{'10533': 2583.67, '6669': 1998.15, '11758': 511.61, '10532': 3698.44}"
253,628290eba85a7a5a0184d24a,Tresors de Tanit,"<br />
cosmètica natural i amb certificat ecològic",,,https://i.pinimg.com/564x/71/d1/5b/71d15bfec596e1b7866ae3bc12e381d3.jpg,"[41.4042101, 2.1554337]","Carrer d'Astúries, 65",Gràcia,Vila de Gràcia,08012,herbalist,"['For children', 'Restaurant', 'Herbalist']",,,"{'10533': 2509.75, '6669': 2102.56, '11758': 631.47, '10532': 3840.51}"
254,628290eba85a7a5a0184d24b,Labperfum,"<br />
venda de perfums a granel amb reutilització de l'envàs",,,https://i.pinimg.com/564x/f7/cc/f3/f7ccf366101db1b54067ecca8418bfe6.jpg,"[41.4037923, 2.1552502]","Carrer d'Astúries, 52",Gràcia,Vila de Gràcia,08001,alimentation,"['Accessible', 'Vegan food', 'Fruits & vegetables']",,,"{'10533': 2551.12, '6669': 2055.26, '11758': 582.61, '10532': 3804.78}"
255,628290eba85a7a5a0184d24c,La Baldufa,"Roba de nen petit,alguna de 2a mà i alguna de cotó orgànic certificat. Boc&rolls i bolquers de roba.",,,https://i.pinimg.com/564x/25/ae/91/25ae91b15d98490d89536c69a617a237.jpg,"[41.4006123, 2.153792]","Carrer del Cigne, 12",Gràcia,Vila de Gràcia,08012,supermarket,"['Local products', 'Cosmetics', 'For children']",,,"{'10533': 2872.89, '6669': 1698.21, '11758': 210.61, '10532': 3538.45}"
256,628290eba85a7a5a0184d24d,Gust d'hort,"<br />
Botiga de fruites i verdures, collita pròpia sense pesticides, i altres productes tots de Tarragona o Lleida.",,,https://i.pinimg.com/564x/01/d6/73/01d6739c176f5ee7f0192c4a3914d8d3.jpg,"[41.399957, 2.1574753]","Plaça de la Vila de Gràcia, 19",Gràcia,Vila de Gràcia,08001,bar,"['Second hand', 'Accessible', 'Plastic free']",,,"{'10533': 3010.48, '10534': 3948.21, '6669': 1653.66, '11758': 366.89, '10532': 3793.22}"
257,628290eba85a7a5a0184d24e,Granja Armengol,"<br />
Venta de productes làctics directes de granja pròpia de Gurb.",,,https://i.pinimg.com/564x/83/3b/9a/833b9a1f93b05d381bc442a45fca6197.jpg,"[41.4020933, 2.1603543]","Carrer de Puigmartí, 40",Gràcia,Vila de Gràcia,08001,supermarket,"['Pharmacy', 'Bakery', 'Allows pets']",,,"{'10533': 2859.49, '10534': 3689.2, '6669': 1940.94, '11758': 690.41}"
258,628290eba85a7a5a0184d24f,Costa Codina,"<br />
Farmàcia amb cosmètica ecològica (arko pharma), compreses i tampons de cotó orgànic, copa menstrual i vaixella de fibra de bambú per a bebès. Raspall de dents de bambú i pastes de dents veganes.",,https://www.farmaciacostacodina.com/,https://i.pinimg.com/564x/07/d2/8f/07d28f2f30af7ee6ec671163498d5600.jpg,"[41.3840821, 2.1616097]","Gran Via de les Corts Catalanes, 568",Eixample,Sant Antoni,08001,cosmetics,"['Allows pets', 'Herbalist', 'Supermarket']",,,"{'6669': 664.6, '11758': 1768.71, '10532': 3894.45}"
259,628290eba85a7a5a0184d250,Farmàcia Martínez,"<br />
Cosmètica ecològica, compreses i tampons de cotó orgànic, copa menstrual, raspalls de dents de bambú",,,https://cdn.pixabay.com/photo/2016/03/02/20/13/grocery-1232944_1280.jpg,"[41.3834692, 2.1607944]","Gran Via de les Corts Catalanes, 560",Eixample,Sant Antoni,08011,cosmetics,"['Bakery', 'Beverages', 'Recycled material']",,,"{'6669': 617.78, '11758': 1807.34, '10532': 3834.12}"
260,628290eba85a7a5a0184d251,Forn Iglesias,"<br />
Forn on el producte es fa amb pa de farines ecològiques.",,,https://i.pinimg.com/564x/83/3b/9a/833b9a1f93b05d381bc442a45fca6197.jpg,"[41.3792875, 2.1552666]","Gran Via de les Corts Catalanes, 464",Eixample,Sant Antoni,08001,others,"['Cosmetics', 'Accessible', 'Fruits & vegetables']",,,"{'6681': 3501.18, '6669': 683.72, '11758': 2169.04, '10532': 3468.88}"
261,628290eba85a7a5a0184d252,Granel Poblenou,"GRANEL POBLENOU promou la compra responsable, el consum sostenible, la reutilització i la reducció de residus a través de la venda d’alimentació ecològica i de proximitat a granel. La inmensa majoria de productes es venen a granel, en bosses de paper, i s'incentiva als clients i clientes amb un  descompte si porten els seus envasos de casa. <br />
<br />
Hi trobaràs bons consells i productes per una alimentació saludable i conscient, responent a necessitats reals de consum: pasta, arrossos, farines, llegums, fruits secs, cereals, cafès i tes, espècies, deshidratats, herbes… i seguint amb la filosofia zero-waste també hi trobaràs productes per la higiene personal i la neteja de la llar.<br />
 ",,https://granel.cat/ca/shop/granel-poblenou/,https://i.pinimg.com/564x/71/d1/5b/71d15bfec596e1b7866ae3bc12e381d3.jpg,"[41.4035522, 2.1977058]","Rambla del Poblenou, 117",Sant Martí,El Poblenou,08018,fruits & vegetables,"['Bar', 'Second hand', 'Vegan food']",,,"{'10534': 569.71, '6677': 3195.09, '11758': 3735.14}"
262,628290eba85a7a5a0184d253,La Eco Tribu,"A La Ecotribu trobaràs productes de neteja, higiene personal, cosmética i llar respectuosos amb el medi ambient i amb les persones. Venem productes sense tóxics, la majoria amb certificació ecológica, en envasos biodegradables, reutilitzables o retornables, i molts dels nostres productes es venen a granel. A més, tots estàn fabricats de manera ética i prioritzem la proximitat.",,https://www.laecotribu.com/,https://i.pinimg.com/564x/ce/84/41/ce844160a3d2dd51382d52e955e05a50.jpg,"[41.3961188, 2.1448918]","Carrer de Laforja, 79",Sarrià - Sant Gervasi,Sant Gervasi - Galvany,08021,bar,"['Bakery', 'Bar', 'Accessible']",,,"{'10533': 3341.55, '6681': 3787.4, '6669': 1411.2, '11758': 766.19, '10532': 2660.29}"
263,628290eba85a7a5a0184d254,Abans morta que senzilla,"La roba i complements que tenim ens distingeix pel seu disseny i qualitat. Articles reconeguts com a ètics, sostenibles i proximitat!. Vesteix amb teixits de cotó, suaus i textures càlides amb un estil natural i elegant tot afavorint la sostenibilitat del nostre planeta.",,,https://i.pinimg.com/564x/52/76/a7/5276a7255d2cc0514b0af1dd8b55efc7.jpg,"[41.4356271, 2.1901464]","Carrer de l'Ajuntament, 22",Sant Andreu,Sant Andreu,08030,others,"['Plastic free', 'Green space', 'Supermarket']",,,"{'10533': 3671.2, '10534': 3728.1, '6677': 2898.14}"
264,628290eba85a7a5a0184d255,Organic Lab Inc,"ORGANIC LAB INC neix de la necessitat de tenir cura del medi ambient mentre ens cuidem i és el lloc perfecte per gaudir d’una experiència única. Visita la nostra botiga i explora la nostra gamma d’articles de bellesa i cura personal. Esperem veure’t aviat per Organic Lab Inc!<br />
<br />
A Organic Lab Inc trobaràs productes naturals i vegans, que et permetran reduir els teus residus tant en toxicitat com en quantitat.",,https://www.organiclabinc.com/,https://i.pinimg.com/564x/fb/ef/60/fbef60ff298f65e2cb8757827aa1dfb7.jpg,"[41.4327542, 2.1891095]","Carrer de Coroleu, 2",Sant Andreu,Sant Andreu,08030,beverages,"['Vegan food', 'Plastic free', 'Bakery']",,,"{'10533': 3507.41, '10534': 3458.35, '6677': 2874.17}"
265,628290eba85a7a5a0184d256,Casa Donoso Gourmet,"Botiga d'alimentació on es poden trobar productes d'alta qualitat respectuosos amb el medi ambient.<br />
A Casa Donoso hi trobes productes de comerç just, elaboracions de cuina d'aprofitament i prevenció del malbaratament alimentari, vins a granel en envasos reutilitzables, opcions veganes i ecològiques i producte nacional.",,https://www.casadonoso.es/,https://i.pinimg.com/564x/8c/d4/b7/8cd4b7791b6db9189a2f9ac9bd6e81a0.jpg,"[41.4362508, 2.1884135]","Carrer de Malats, 46",Sant Andreu,Sant Andreu,08001,bar,"['Recycled material', 'Plastic free', 'Green space']",,,"{'10533': 3554.59, '10534': 3841.93, '6677': 3058.17}"
266,628290eba85a7a5a0184d257,Graneria Torras,"Comerç d'alimentació on es pot adquirir tot tipus de producte d'alimentació a granel (llegum sec, cereals, oli, mel, tes, espècies, etc), i altres envasats amb certificació ecològica.",,,https://i.pinimg.com/564x/dd/a3/6e/dda36e4305073dba20a161b41987a5b3.jpg,"[41.4376702, 2.1931871]","Carrer de Joan Torras, 44",Sant Andreu,Sant Andreu,08030,cosmetics,"['Beverages', 'Local products', 'Green space']",,,"{'10533': 3982.12, '10534': 3874.36, '6677': 2768.35}"
267,628290eba85a7a5a0184d258,Bon Granel,"Tenim una botiga d'alimentació a granel, des de llegums, arrossos, fruits secs, cereals, café, te, vinagres, mel... tan convencionals com ecològics, i cada vegada tenim més productes de proximitat.<br />
<br />
La nostra botiga està pensada per poder fer una compra sostenible i sense generar cap tipus de residus. La nostra filosofía és no generar més residus d'un sol ús fomentant la reutilització d'envasos fent un descompte als clients que portin els seus propis de casa. Sinó, poden fer la seva compra utilitzant bosses reciclades i biodegradables que tenim a la botiga.",,www.bongranel.es,https://i.pinimg.com/564x/07/d2/8f/07d28f2f30af7ee6ec671163498d5600.jpg,"[41.3752909, 2.1332308]","Carrer de Sants, 143",Sants - Montjuïc,Sants,08028,non-alimentation,"['Bakery', 'Local products', 'For children']",,,"{'6681': 1613.87, '6669': 2049.43, '11758': 3102.82, '10532': 2028.44}"
268,628290eba85a7a5a0184d259,Manantial Drogueria,"Manantial és una drogueria a granel ubicada al barri d'Eixample a Barcelona. Amb aquesta botiga volem contribuir al benestar de les cases, enfortir l'economia local i participar en la cura del medi ambient promovent una forma de consum responsable.<br />
<br />
Participem en la reducció de l'ús de plàstic amb una oferta àmplia de productes a granel distribuïts en envasos reutilitzables: pols per a la neteja, detergent, gel de dutxa, xampús, olis cosmètics… També oferim alternatives als productes d'ús únic i/o fets de plàstic. Aquests productes inclouen articles per a nens, mascotes, papereria, jardineria, cuina, higiene menstrual, lavabo de la llar i higiene personal.<br />
 ",,http://manantial.cat/,https://i.pinimg.com/564x/b7/ed/e3/b7ede31ce52cca67b321f8e7b615403e.jpg,"[41.3915058, 2.1554805]","Carrer d'Aribau, 138",Eixample,L'Antiga Esquerra de l'Eixample,08001,fruits & vegetables,"['For children', 'Beverages', 'Fruits & vegetables']",,,"{'10533': 3894.87, '6669': 699.43, '11758': 823.5, '10532': 3394.04}"
269,628290eba85a7a5a0184d25a,Salsifí,"Fruiteria i Verduleria d'alimentació ecològica i de proximitat. Seleccionem en primer terme productes de conrreus catalans i en segon terme productes vinguts de la península. Tot i que fem una excepción amb el plàtan de Canàries, a Salsifí no trobaràs aliments frescs de països llunyans per què no té sentit.<br />
<br />
<br />
 ",,https://salsifi.cat/,https://i.pinimg.com/564x/71/d1/5b/71d15bfec596e1b7866ae3bc12e381d3.jpg,"[41.4095356, 2.2034149]","Carrer de Fluvià, 123",Sant Martí,Provençals del Poblenou,08001,bakery,"['Restaurant', 'Local products', 'Supermarket']",,,"{'10534': 635.62, '6677': 2379.94}"
270,628290eba85a7a5a0184d25b,Les tisores del Poble9,"Perruqueria que treballa amb la marca OWAY, que tenen certificaicó biodinàmica i tot els productes són naturals i sense químics. A més, els productes a la venda es poden comprar en envasos de vidre retornables.",,,https://i.pinimg.com/564x/01/d6/73/01d6739c176f5ee7f0192c4a3914d8d3.jpg,"[41.4000184, 2.205411]","Carrer de l'Amistat, 9-11 ",Sant Martí,El Poblenou,08001,cosmetics,"['Fruits & vegetables', 'Cosmetics', 'Pharmacy']",,,"{'10534': 435.74, '6677': 3174.08}"
271,628290eba85a7a5a0184d25c,Vernita,"Vernita és un estudi de disseny i taller de costura creativa.<br />
A la botiga es pot trobar roba per nens i nadons i regals diferents, que segueixen criteris de sostenibilitat. Per exemple, la roba és de proximitat i de fabricació responsable (roba de bambú, de cotó orgànic o reciclada), i també hi ha altres elements que incentiven la reutilització com cantimplores, carmanyoles, motxilles fetes amb material reciclat, entre d'altres.<br />
A més, també es poden trobar productes decoratius fets a mà com garlandes i coixins, i peces tèxtils per als nadons, nens i adults; tot tipus de bosses, foulards, mantes, colls, pitets, tovalloles y fundas.<br />
I per completar, fan tallers de costura a mida per nens i grans que donen vida a excedents tèxtils.<br />
 ",,,https://i.pinimg.com/564x/b7/ed/e3/b7ede31ce52cca67b321f8e7b615403e.jpg,"[41.40109223, 2.20416228]","Carrer de Joncar, 27",Sant Martí,El Poblenou,08001,herbalist,"['Vegan food', 'Supermarket', 'Allows pets']",,,"{'10534': 311.44, '6677': 3116.47}"
272,628290eba85a7a5a0184d25d,Limonada de lavanda,"A Limonada de lavanda aposten pels productes de cosmètica sostenibles i naturals, amb el propòsit de vendre productes respectuosos amb el medi ambient, i amb productes de cosmètica sòlida com sabons, renta plats o detergents per la roba.<br />
A més, també fan tallers de sabons naturals i espelmes sense parafines i tenen tots els ingredients a granel perquè després es pugui fer a casa.",,https://limonadadelavanda.com/,https://i.pinimg.com/564x/83/3b/9a/833b9a1f93b05d381bc442a45fca6197.jpg,"[41.40206599, 2.20180193]","Carrer Marià Aguiló, 60",Sant Martí,El Poblenou,08005,others,"['Accessible', 'Beverages', 'Cosmetics']",,,"{'10534': 303.61, '6677': 3125.02}"
273,628290eba85a7a5a0184d25e,YES FUTURE El Poblenou,"Nou model de supermercat que només ofereix productes a granel. Els clients que ho desitgin poden acudir amb els seus propis envasos reutiltzables i omplir-los sense generar residus. Si és necessari també disposen de bosses de paper, cartó o altres alternatives amb certificació ecològica.<br />
Hi ha al voltant de 300 referències de productes alimentaris i detergents a granel respectuosos amb l'ambient i biodegradables. Tenen ampolles de HDPE, que és l'únic plàstic de la botiga i exclusivament per productes de neteja. És un tipus de plàstic que no després toxines, és molt resistent i reutilitzable, a més de reciclable.<br />
També hi ha utensilis de neteja fets amb materials naturals, biodegradables i compostables.",,http://www.yesfuture.store/,https://i.pinimg.com/564x/52/76/a7/5276a7255d2cc0514b0af1dd8b55efc7.jpg,"[41.40295122, 2.20223109]","Carrer de Pujades, 197",Sant Martí,El Poblenou,08005,cosmetics,"['Bakery', 'Restaurant', 'For children']",,,"{'10534': 217.24, '6677': 3023.09}"
274,628290eba85a7a5a0184d25f,Teixidor taula i cuina,"<br />
En aquest comerç podem trobar diferents productes que ens permetran reduir els nostres residus diaris, com per exemple carmanyoles, tapes de silicona, silicona per congelar, portaentrepans, fundes d'entrepans grans, bosses de roba per anar a comprar, el naturpod (per allargar la vida de les fruites i verdures de la nevera), brita, filtres de carbó actiu, paelles fetes amb material reciclat, o cantimplores, entre d'altres.",,https://www.angelteixido.com/,https://cdn.pixabay.com/photo/2016/03/02/20/13/grocery-1232944_1280.jpg,"[41.4026257, 2.1999129]","Carrer Pallars, 224",Sant Martí,El Poblenou,08005,pharmacy,"['Allows pets', 'Beverages', 'Plastic free']",,,"{'10534': 408.99, '6677': 3163.15, '11758': 3904.71}"
275,628290eba85a7a5a0184d260,Cruixent,"En aquest forn amb obrador propi s'elaboren tot tipus de pans artesanalment a partir de massa mare elaborada amb diferents tipus de llavors i fermentacions. A més, totes les farines integrals i de llavors especials tenen certificacions ecològiques.<br />
 ",,https://josep028.wixsite.com/cruixent,https://i.pinimg.com/564x/fb/ef/60/fbef60ff298f65e2cb8757827aa1dfb7.jpg,"[41.4018809, 2.20072905]","C/ Pujades, 173",Sant Martí,El Poblenou,08001,pharmacy,"['Pharmacy', 'Allows pets', 'Plastic free']",,,"{'10534': 386.68, '6677': 3191.72, '11758': 3964.25}"
276,628290eba85a7a5a0184d261,Forn Santanach,"<br />
En aquest forn de pa utilitzen farines de proximitat sense químics i procuren respectar el mètode tradicional per fer el pa. A la mateixa botiga tenen un obrador propi on elaboren tots els productes.<br />
Per tal d'ajudar a la seva clientela a reduir els seus residus, cada any donen bosses de roba del pa per fomentar alternatives als materials d'un sol ús. Col·laboren amb una associació de dones en risc d'exclusió social, que els hi fan aquestes bosses.",,,https://i.pinimg.com/564x/01/d6/73/01d6739c176f5ee7f0192c4a3914d8d3.jpg,"[41.40219475, 2.19993512]","Rambla del Poblenou, 98",Sant Martí,El Poblenou,08005,non-alimentation,"['Allows pets', 'For children', 'Herbalist']",,,"{'10534': 426.04, '6677': 3200.93, '11758': 3901.56}"
277,628290eba85a7a5a0184d262,La cervecita nuestra de cada día,Aquesta cerveseria ven 8 tipus diferents de cervesa artesana a granel. Tenen envasos reutilitzables a la venta i també accepten envasos que portis de casa.,,,https://i.pinimg.com/564x/b7/ed/e3/b7ede31ce52cca67b321f8e7b615403e.jpg,"[41.4003565, 2.2015885]","Carrer de Llull, 184",Sant Martí,El Poblenou,08001,bakery,"['Second hand', 'Bar', 'Plastic free']",,,"{'10534': 461.94, '6677': 3295.25}"
